StateAbb	PlaceName	longitude	latitude	DistancetoCapitalCity_km
AL	High Pine Creek Watershed Dam Number 3	-85.35328	33.17512	124
AL	High Pine Creek Watershed Dam Number 4	-85.37995	33.21179	125
AL	High Pine Creek Watershed Dam Number 5	-85.38828	33.21345	125
AL	High Pine Creek Watershed Dam Number 6	-85.40662	33.18512	122
AL	High Pine Lake Number 11	-85.43950	33.09819	112
AL	High Pine Water Shed Dam Number 11	-85.44162	33.10012	112
AL	High Point	-86.87777	33.33372	123
AL	High Point	-86.39581	33.62621	141
AL	High Point	-87.48500	33.20706	149
AL	High Point	-85.47774	33.97177	193
AL	High Point	-86.27859	34.24232	209
AL	High Point	-87.59501	34.02000	223
AL	High Point	-85.72830	34.57147	250
AL	High Point	-86.44777	34.69648	260
AL	High Point	-86.26748	34.71120	261
AL	High Point	-85.98498	34.92842	286
AL	High Point Baptist Church	-86.27748	34.24259	209
AL	High Point Cemetery	-86.27776	34.24259	209
AL	High Point Church	-86.14109	34.41287	228
AL	High Point Church of God	-85.67969	34.58370	253
AL	High Point School (historical)	-85.72664	34.56870	250
AL	High Pointe Golf Course	-88.16730	30.75919	253
AL	High Ridge	-85.89495	32.06265	47
AL	High Ridge Cemetery	-85.77245	32.02321	59
AL	High Ridge Church	-85.74939	32.01821	61
AL	High Rock	-86.69055	33.95954	182
AL	High Rock Church	-86.68694	33.96177	182
AL	High Rock Point	-86.04026	34.97758	291
AL	High Rocky Hill	-88.13362	31.36795	209
AL	High Run	-88.01446	32.59930	167
AL	High Shoals	-85.34134	33.23401	130
AL	High Shoals Falls	-85.33283	33.23715	131
AL	High Street Baptist Church	-86.03720	34.03176	187
AL	High Street Church of Christ	-87.69809	34.72787	295
AL	High Top	-86.33527	34.94175	287
AL	High View	-85.75942	34.74480	269
AL	Higher Ground Baptist Church	-88.25844	30.44500	285
AL	Highfalls	-85.79993	31.09851	146
AL	Highfield Branch	-85.63080	34.73925	271
AL	Highfield Creek	-85.66414	34.76286	272
AL	Highland	-86.67332	32.79318	62
AL	Highland	-85.82552	33.35567	118
AL	Highland Avenue Baptist Church	-86.28219	32.37264	3
AL	Highland Avenue Elementary School	-86.28108	32.37153	3
AL	Highland Avenue Historic District	-86.78916	33.50288	136
AL	Highland Baptist Church	-86.67054	32.80290	63
AL	Highland Baptist Church	-86.60972	34.48648	238
AL	Highland Baptist Church	-87.67864	34.81842	303
AL	Highland Baptist Hospital	-86.78999	33.50288	136
AL	Highland Cemetery	-86.66970	32.80318	63
AL	Highland Cemetery	-85.81524	33.65760	150
AL	Highland Cemetery	-85.61524	33.93316	185
AL	Highland Church	-86.77388	33.34094	119
AL	Highland Church	-86.69638	33.39039	122
AL	Highland Church	-88.18306	30.77185	254
AL	Highland Church of Christ	-86.22497	32.33847	4
AL	Highland Church of God	-86.67332	32.79263	62
AL	Highland Country Club	-88.18389	30.67797	261
AL	Highland Crest	-86.84638	33.37789	126
AL	Highland Elementary Grade School	-85.40438	31.23156	149
AL	Highland Evangelic Church	-86.27108	32.37208	2
AL	Highland Forest	-86.99472	33.48983	143
AL	Highland Gardens	-86.27997	32.40708	6
AL	Highland Gardens Baptist Church	-86.27747	32.40097	5
AL	Highland Gardens Church of Christ	-86.27830	32.39847	5
AL	Highland Gardens Elementary School	-86.27914	32.39903	5
AL	Highland Home	-86.31385	31.95348	45
AL	Highland Home Church	-86.30830	31.95376	45
AL	Highland Home Church of Christ	-86.31441	31.95182	45
AL	Highland Home High School	-86.31330	31.95293	45
AL	Highland Home Post Office	-86.31441	31.95293	45
AL	Highland Home Volunteer Fire and Rescue	-86.31339	31.92203	49
AL	Highland Lake	-86.41971	33.88510	170
AL	Highland Lake	-86.42368	33.88725	170
AL	Highland Lake Dam	-86.43332	33.88010	170
AL	Highland Lakes Census Designated Place	-86.65130	33.39838	121
AL	Highland Memorial Gardens	-86.95999	33.42650	136
AL	Highland Methodist Church	-87.67836	34.76370	298
AL	Highland Oaks Golf Course	-85.49822	31.22926	144
AL	Highland Park	-85.95801	31.78988	69
AL	Highland Park	-86.81610	33.48955	136
AL	Highland Park	-87.67086	34.73342	294
AL	Highland Park	-87.66975	34.74287	295
AL	Highland Park Church	-87.66947	34.73064	294
AL	Highland Park Church of Christ	-87.66697	34.75814	297
AL	Highland Park Methodist Church	-85.40827	31.21073	150
AL	Highland Park Presbyterian Church (historical)	-86.28275	32.37097	3
AL	Highland Park Public Use Area	-85.09965	31.63128	136
AL	Highland Park School	-87.66281	34.73926	295
AL	Highland Park United Methodist Church	-85.40866	31.20810	151
AL	Highland Pond	-88.26460	31.53221	211
AL	Highland Post Office (historical)	-86.79360	32.82874	73
AL	Highland Residence Park	-86.78582	33.50622	137
AL	Highland School	-85.98942	34.08149	193
AL	Highland Spring	-86.77193	33.34456	120
AL	Highland Village	-86.34080	32.36125	8
AL	Highland Volunteer Fire Department	-85.96374	34.09905	195
AL	Highlands	-86.91944	33.29845	121
AL	Highlands Baptist Church	-86.63444	34.76342	269
AL	Highlands Elementary School	-86.63249	34.75787	269
AL	Highlands Medical Center	-86.04738	34.66228	256
AL	Highlands Methodist Church	-86.79527	33.50149	137
AL	Highlands Methodist Church	-86.62972	34.75370	268
AL	Highlands Park	-86.88027	33.50205	140
AL	Highlandview Church	-86.57887	33.60733	142
AL	Highlog (historical)	-85.90468	32.16070	40
AL	Highmound	-86.37887	34.14398	199
AL	Highmound Church	-86.38054	34.14287	198
AL	Highnote	-85.69243	30.99601	160
AL	Highpine Creek Lake Number 1	-85.33661	33.21845	129
AL	Highpine Creek Watershed Dam Number 1	-85.33661	33.21845	129
AL	Highpoint	-85.88664	34.34315	223
AL	Highpoint Baptist Church	-88.14182	30.76148	252
AL	Highpoint Estates	-86.25413	32.40097	5
AL	Highpoint Overlook	-88.08198	34.81064	321
AL	Highrock Lake	-85.62231	33.71567	162
AL	Highsmith Branch	-85.81689	31.84210	71
AL	Hight School (historical)	-86.63333	34.84870	279
AL	Hightogy	-88.09475	33.69511	227
AL	Hightogy Church	-88.09503	33.69483	227
AL	Hightower	-85.39551	33.53178	153
AL	Hightower Cemetery	-87.05029	34.97342	299
AL	Hightower Hollow	-87.37280	34.60009	270
AL	Hightown	-87.58890	33.24317	159
AL	Highview	-87.65084	33.29734	167
AL	Highview School	-86.27581	34.24426	209
AL	Highway 247 Volunteer Fire Department	-87.90571	34.62685	295
AL	Highway 36 Church	-87.21474	34.41954	245
AL	Highway 45 Baptist Church	-88.11472	30.74963	251
AL	Highway 51 Volunteer Fire Department	-85.54663	32.14214	71
AL	Highway Cemetery	-85.35412	33.27706	133
AL	Highway Church	-85.96970	34.39176	227
AL	Highway First Congregational Methodist Church	-85.35384	33.27706	133
AL	Highway Five Church	-87.38668	33.91622	202
AL	Highway Ridge Memorial Gardens	-85.34856	33.27790	133
AL	Highway School (historical)	-87.86529	32.90568	163
AL	Hill Branch	-88.03363	32.17820	168
AL	Hill Cemetery	-86.02190	32.31542	23
AL	Hill Cemetery	-85.46467	32.60375	79
AL	Hill Cemetery	-86.31275	33.16012	89
AL	Hill Cemetery	-87.72139	31.65460	159
AL	Hill Cemetery	-88.11530	32.85069	183
AL	Hill Cemetery	-88.13836	32.97457	189
AL	Hill Cemetery	-88.07114	33.84705	237
AL	Hill Cemetery	-86.60055	34.50093	240
AL	Hill Cemetery	-88.10559	33.87066	241
AL	Hill Cemetery	-87.13862	34.41593	243
AL	Hill Cemetery	-87.10807	34.50371	251
AL	Hill Cemetery	-85.85664	34.62842	255
AL	Hill Cemetery	-87.44252	34.64954	277
AL	Hill Cemetery	-87.50808	34.91620	307
AL	Hill Chapel	-86.34332	34.53759	242
AL	Hill Creek	-87.18222	33.02957	114
AL	Hill Creek	-87.10638	33.11484	116
AL	Hill Creek Mine	-87.12583	33.12373	118
AL	Hill Crest Baptist Church	-85.83413	33.67288	151
AL	Hill Crest Behavioral Health Services	-86.73012	33.54882	139
AL	Hill Dam	-86.27663	32.09181	29
AL	Hill Elementary School	-86.83082	33.51233	139
AL	Hill Hospital of Sumter County	-88.29565	32.49204	192
AL	Hill Lake	-85.23829	32.91894	114
AL	Hill Lake Number Two	-86.15809	32.18850	21
AL	Hill Mountain	-88.26808	32.04043	193
AL	Hill Mountain	-86.38638	34.56926	246
AL	Hill Number 1	-86.46887	33.68566	149
AL	Hill Number 2	-86.48332	33.68760	149
AL	Hill Place Cemetery	-87.55112	32.67819	127
AL	Hill Pond	-86.10116	34.81978	274
AL	Hill Pond Dam	-86.10332	34.81842	273
AL	Hill Poultry Farm	-85.62028	34.92917	291
AL	Hill Push Mine	-87.46168	33.97650	212
AL	Hill Ranch Dam	-88.17003	32.78680	186
AL	Hill Ranch Pond	-88.17003	32.78680	186
AL	Hill School (historical)	-86.58777	34.96203	291
AL	Hill Spring Baptist Church	-88.09917	31.24600	213
AL	Hill Spring Branch	-87.79448	34.29482	258
AL	Hill Springs (historical)	-86.34220	33.14373	88
AL	Hill Springs Cemetery	-88.09917	31.24545	214
AL	Hill Top	-87.90029	32.25959	155
AL	Hill Top (historical)	-85.89441	33.83343	167
AL	Hill Zion Church	-87.62640	32.80124	138
AL	Hill Zion Church	-87.67029	32.83124	143
AL	Hill and Hill Dam	-86.30163	32.13681	25
AL	Hill and Hill Lake	-86.30219	32.13681	25
AL	Hill of Knowledge School (historical)	-86.27192	33.57788	135
AL	Hill-Thompson Cemetery	-85.45689	32.98873	103
AL	Hillabee Baptist Church	-85.91163	32.96596	75
AL	Hillabee Campground Cemetery	-85.90441	33.04873	84
AL	Hillabee Campground Methodist Church	-85.90441	33.04901	84
AL	Hillabee Creek	-85.85330	32.96457	77
AL	Hillabee Creek	-85.76274	33.58872	144
AL	Hillabee Post Office (historical)	-85.84218	33.19234	100
AL	Hillabee Ridge	-85.90469	33.16845	96
AL	Hillabeehago Branch	-85.56579	33.14790	109
AL	Hillabi (historical)	-85.92219	33.09595	88
AL	Hillake	-86.30860	32.31921	6
AL	Hillandale	-86.61555	34.73176	265
AL	Hillard Drift Mine	-87.36528	33.82233	193
AL	Hillard Mine	-87.35695	33.81816	192
AL	Hillard and Howard Cemetery	-86.04856	31.76599	68
AL	Hillards Cross Roads	-85.87800	31.69433	82
AL	Hillardsville (historical)	-85.20354	31.68350	124
AL	Hillcrest	-86.28608	32.38597	4
AL	Hillcrest	-85.81161	31.72516	82
AL	Hillcrest	-87.47472	32.45152	115
AL	Hillcrest	-85.85549	31.33100	120
AL	Hillcrest	-87.54473	33.19123	152
AL	Hillcrest	-85.82635	33.72232	157
AL	Hillcrest - Grelot Shopping Center	-88.19128	30.66197	263
AL	Hillcrest Baptist Church	-86.84054	32.73291	69
AL	Hillcrest Baptist Church	-85.62577	31.45406	117
AL	Hillcrest Baptist Church	-85.85383	31.32795	120
AL	Hillcrest Baptist Church	-87.47473	33.18706	147
AL	Hillcrest Baptist Church	-88.19168	30.66454	263
AL	Hillcrest Cemetery	-86.84138	32.73263	69
AL	Hillcrest Cemetery	-86.12107	31.71849	72
AL	Hillcrest Cemetery	-86.01383	31.40294	108
AL	Hillcrest Cemetery	-87.12833	33.12984	118
AL	Hillcrest Cemetery	-87.31820	31.53000	136
AL	Hillcrest Cemetery	-85.77246	33.82177	169
AL	Hillcrest Cemetery	-87.17886	31.03185	171
AL	Hillcrest Cemetery	-86.17720	34.19454	204
AL	Hillcrest Cemetery	-87.15223	34.18750	219
AL	Hillcrest Cemetery	-87.79780	33.88011	222
AL	Hillcrest Cemetery	-87.61751	34.22555	243
AL	Hillcrest Church	-85.62549	31.45378	117
AL	Hillcrest Church	-85.77438	31.12712	144
AL	Hillcrest Church	-87.79669	33.88011	222
AL	Hillcrest Country Club	-86.81693	33.47316	134
AL	Hillcrest Estates	-86.92777	33.59455	151
AL	Hillcrest Garden	-85.22939	32.87652	112
AL	Hillcrest High School	-87.53750	33.13000	147
AL	Hillcrest Memorial Gardens	-88.15282	34.46065	292
AL	Hillcrest Middle School	-87.53972	33.13250	148
AL	Hillcrest Plaza Shopping Center	-88.18968	30.67540	262
AL	Hillcrest Pond	-86.37829	31.19517	129
AL	Hillcrest Pond	-86.40958	31.19883	129
AL	Hillcrest Pond Number 1 Dam	-86.37829	31.19517	129
AL	Hillcrest Pond Number 2 Dam	-86.40829	31.19851	129
AL	Hillcrest Ponds	-86.41024	31.19577	130
AL	Hillcrest Road Commercial Park	-88.19130	30.67100	262
AL	Hillcrest School	-85.85383	31.32295	121
AL	Hillcrest Square Building	-88.19140	30.66927	262
AL	Hilldale Baptist Church	-86.69916	33.65205	149
AL	Hilldale Farm Lake	-86.62345	33.72480	155
AL	Hilldale Farm Lake Dam	-86.62499	33.72510	156
AL	Hilley Branch	-85.98942	34.49481	238
AL	Hilley Point	-86.07164	34.47759	236
AL	Hillhouse Lake	-86.48933	33.53009	132
AL	Hillian Store (historical)	-86.12026	34.49259	237
AL	Hilliard	-87.37640	33.81455	192
AL	Hilliard African Methodist Episcopal Zion Church	-86.29136	32.37236	4
AL	Hillman	-86.90805	33.44511	135
AL	Hillman Ferry (historical)	-88.05419	32.65319	172
AL	Hillman Gardens	-86.90305	33.44789	135
AL	Hillman Mine	-86.90416	33.42650	133
AL	Hillman Park	-86.90055	33.44483	135
AL	Hillman Pond	-87.96643	31.30386	199
AL	Hillmans Island (historical)	-88.09724	32.68597	177
AL	Hillmont	-86.62416	34.72315	265
AL	Hills Chapel	-86.12524	32.03404	38
AL	Hills Chapel	-86.82528	34.31982	224
AL	Hills Chapel	-86.43971	34.43092	231
AL	Hills Chapel	-86.58749	34.96203	291
AL	Hills Chapel Cemetery	-86.12690	32.03515	38
AL	Hills Chapel Church	-85.59884	32.81624	80
AL	Hills Chapel School (historical)	-86.12024	32.01876	40
AL	Hills Christian Methodist Episcopal Chapel	-86.55137	33.54094	134
AL	Hills Creek	-86.94443	32.04765	73
AL	Hills Creek	-86.96721	31.93765	81
AL	Hills Lake	-86.30056	32.13832	25
AL	Hills Lake	-85.25169	32.87714	111
AL	Hills Lake (historical)	-85.13327	31.98766	114
AL	Hills Landing (historical)	-88.15001	31.75682	191
AL	Hills Mill (historical)	-85.86246	33.34789	116
AL	Hills Mills (historical)	-87.86472	31.05629	210
AL	Hills Store (historical)	-87.42557	33.95927	208
AL	Hills Upper Landing (historical)	-88.16808	32.98235	192
AL	Hillsboro	-87.19168	34.63926	268
AL	Hillsboro	-86.42332	34.93898	287
AL	Hillsboro Area Volunteer Fire Department	-87.15783	34.64788	267
AL	Hillsboro Elementary School	-87.19418	34.63398	267
AL	Hillsboro Heights Baptist Church	-86.61888	34.70092	262
AL	Hillsboro Post Office	-87.19252	34.63704	267
AL	Hillsboro School (historical)	-86.42499	34.93981	287
AL	Hillsdale	-86.60498	33.14540	93
AL	Hillsdale	-87.48250	33.20123	148
AL	Hillsdale	-87.26640	33.86844	192
AL	Hillsdale Community Center	-88.20197	30.70290	260
AL	Hillsdale Heights	-88.20084	30.70019	260
AL	Hillsdale Heights Church of God	-88.20723	30.70519	260
AL	Hillsdale Heights Park	-88.20139	30.70269	260
AL	Hillsdale Methodist Church	-87.71642	34.96564	319
AL	Hillsdale Middle School	-88.20140	30.70399	260
AL	Hillsdale Presbyterian Church	-88.20778	30.70408	261
AL	Hillside (historical)	-86.66665	32.59902	47
AL	Hillside Cemetery	-85.81746	33.65760	150
AL	Hillside Chapel	-85.06493	32.46903	113
AL	Hillside Memorial Gardens	-86.41718	31.31378	117
AL	Hillside School	-85.98247	33.51677	131
AL	Hillside Spring	-87.08279	34.88703	291
AL	Hillsman Gap	-86.18386	33.42872	119
AL	Hillsville (historical)	-86.22775	33.42789	119
AL	Hillswood	-87.47917	33.18456	147
AL	Hilltop	-86.92999	33.34261	126
AL	Hilltop Church	-86.58666	34.32204	220
AL	Hilltop Church	-88.21892	33.84483	246
AL	Hilltop Park	-88.18334	30.69047	260
AL	Hillview	-86.88416	33.57566	147
AL	Hillview	-87.44500	33.22234	147
AL	Hillview Acres	-86.62277	34.74231	267
AL	Hillview Baptist Church	-86.88333	33.57306	147
AL	Hillview Cemetery	-85.92941	32.95068	73
AL	Hillview Church	-86.90944	33.34817	126
AL	Hillview Elementary School	-86.87027	33.56816	146
AL	Hillview Trailer Park	-88.21327	30.57149	272
AL	Hillwood	-86.25413	32.35486	0
AL	Hillwood	-86.36136	32.92540	64
AL	Hillwood	-86.56305	34.63759	255
AL	Hillwood Baptist Church	-86.56305	34.62898	254
AL	Hillwood Plaza Shopping Center	-88.19229	30.64150	264
AL	Hillwood Plaza Shopping Center (duplicate point)	-88.19232	30.64179	264
AL	Hillwood West	-86.27691	32.35736	2
AL	Hilton Birmingham Perimeter Park	-86.72400	33.43550	127
AL	Hilton Mckee Lake	-87.48761	32.52827	117
AL	Hilton Mckee Lake Dam	-87.48834	32.52847	117
AL	Hilview Church	-86.92112	34.41315	236
AL	Hincle Lake	-85.39759	32.73802	91
AL	Hines	-87.64364	34.95981	316
AL	Hines Cemetery	-86.39887	34.47926	236
AL	Hines Cemetery	-86.44721	34.63787	254
AL	Hines Creek	-87.79501	32.69319	149
AL	Hines Gap	-86.42527	34.62148	252
AL	Hines Lake	-87.09255	31.09674	161
AL	Hines Landing	-87.84474	32.54736	151
AL	Hines Memorial Baptist Church	-87.72253	34.27093	252
AL	Hines Mill (historical)	-87.04362	34.65981	266
AL	Hines Mountain	-86.11720	33.84788	166
AL	Hinkle Dam	-85.39661	32.73846	91
AL	Hinote Cemetery	-87.64276	30.65714	230
AL	Hinson Cemetery	-86.01356	31.80904	65
AL	Hinson Mill (historical)	-85.65604	31.12934	148
AL	Hinsons Store (historical)	-85.51521	31.03129	163
AL	Hinton	-88.44225	32.09209	208
AL	Hinton Cemetery	-86.69054	32.63180	51
AL	Hinton Church	-88.44031	32.09098	208
AL	Hinton School	-87.43139	32.48513	111
AL	Hintons Mill (historical)	-87.57501	33.09734	148
AL	Hiphill Landing	-87.65556	33.03207	151
AL	Hipps Creek	-87.64086	34.64981	285
AL	Hipps Hollow	-87.65586	34.64037	285
AL	Hirsch	-85.12188	32.17182	109
AL	Hissop	-86.15330	32.89235	60
AL	Hissop Post Office	-86.15302	32.89235	60
AL	Hitchcock Branch	-88.19254	34.98759	343
AL	Hitchcock Hollow	-88.18226	34.99703	343
AL	Hitchcock Landing (historical)	-88.19476	34.99231	343
AL	Hitching Beech	-85.59802	33.79538	171
AL	Hix (historical)	-85.97192	34.46203	235
AL	Hixon	-87.42610	31.57294	141
AL	Hixon	-88.22475	32.54569	186
AL	Hixon Church	-88.24197	32.54069	188
AL	Hixon Lookout Tower	-87.43999	31.57322	142
AL	Hixson Hall	-86.80166	33.50205	137
AL	Hoagtown	-87.02777	33.50983	147
AL	Hobbie Farm	-86.24469	32.19403	18
AL	Hobbie Lee Dam	-85.67328	32.04015	65
AL	Hobbie Lee Lake	-85.67352	32.04314	65
AL	Hobbs Bar (historical)	-87.39666	32.14098	110
AL	Hobbs Cemetery	-86.53193	34.61898	252
AL	Hobbs Island	-87.39610	31.95209	116
AL	Hobbs Island	-86.53471	34.53704	243
AL	Hobbs Island	-86.54610	34.55398	245
AL	Hobbs Island Sewage Treatment Plant	-86.55805	34.58926	249
AL	Hobbs Landing (historical)	-87.39805	31.94793	117
AL	Hobbs Prospect	-85.90691	33.32039	112
AL	Hobbs Spring Number One	-86.96917	34.94703	295
AL	Hobbs Spring Number Two	-86.96973	34.94758	295
AL	Hobdy	-85.53161	31.81516	91
AL	Hobdys Bridge	-85.66244	31.78516	85
AL	Hobgood	-87.63475	34.71426	291
AL	Hoboken	-85.14882	31.91183	116
AL	Hoboken	-87.87695	32.02598	157
AL	Hoboken Baptist Church	-87.87668	32.02959	157
AL	Hoboken Cemetery	-87.87640	32.03043	157
AL	Hobson	-85.40745	33.28067	130
AL	Hobson	-86.92999	33.50983	142
AL	Hobson	-88.15334	31.47239	204
AL	Hobson Assembly of God Church	-88.15279	31.47267	204
AL	Hobson City	-85.84413	33.62149	145
AL	Hobson City Park	-85.84219	33.61927	145
AL	Hobson Creek	-87.73530	34.13232	240
AL	Hobson Gap	-86.43526	34.21260	206
AL	Hobson School (historical)	-87.68890	32.76680	142
AL	Hobson Volunteer Fire Department	-88.15202	31.46725	205
AL	Hocutts Mill (historical)	-87.62640	33.53567	183
AL	Hodge	-85.94942	34.61953	253
AL	Hodge Chapel Cemetery	-87.82252	33.87288	223
AL	Hodge Church	-85.94887	34.62092	253
AL	Hodge Creek	-86.83746	31.16129	144
AL	Hodge Island	-85.58440	33.17484	110
AL	Hodge Lake	-87.75407	33.31574	176
AL	Hodge Mine	-85.87274	33.32622	113
AL	Hodge Mountain	-86.24276	34.93703	286
AL	Hodgens Creek	-87.89446	32.07737	157
AL	Hodges	-87.92642	34.32704	268
AL	Hodges Cemetery	-86.87444	33.62260	152
AL	Hodges Cemetery	-87.84002	33.87122	224
AL	Hodges Cemetery	-87.21863	34.46593	250
AL	Hodges Cemetery	-87.92698	34.32788	268
AL	Hodges Cemetery	-86.94751	34.97620	297
AL	Hodges Chapel	-87.82280	33.87316	223
AL	Hodges Creek	-85.70301	33.10068	98
AL	Hodges Dam	-87.91837	34.30676	266
AL	Hodges Junior High School	-87.93170	34.33593	269
AL	Hodges Mathis Mill Creek	-85.27882	31.43378	138
AL	Hodges Pond	-88.03901	31.72017	182
AL	Hodges Post Office	-87.92587	34.32704	268
AL	Hodges Poultry Farms	-85.83889	31.11056	144
AL	Hodges Volunteer Fire Department	-87.92632	34.32828	268
AL	Hodgesville	-85.37299	31.08268	164
AL	Hodgesville Church	-85.37104	31.08351	164
AL	Hodgesville Volunteer Fire Department	-85.37472	31.11481	161
AL	Hodgewood	-88.30224	31.93737	198
AL	Hodnett Creek	-85.59078	32.49903	65
AL	Hodnett Mill Creek	-85.60884	33.02790	96
AL	Hoehn Mine	-87.72862	33.40512	180
AL	Hoff Pond	-85.63613	32.12890	64
AL	Hoff Pond Dam	-85.63495	32.12848	64
AL	Hoffman Rhyne Lake	-86.73831	32.25514	47
AL	Hog Bayou	-88.05500	30.75102	247
AL	Hog Bayou	-87.95166	30.24715	284
AL	Hog Branch	-87.49054	31.08435	183
AL	Hog Branch	-87.92558	33.33651	190
AL	Hog Branch	-86.57249	34.34176	222
AL	Hog Creek	-86.68859	31.97931	58
AL	Hog Creek	-86.53581	32.88651	64
AL	Hog Creek	-85.93384	31.60766	89
AL	Hog Creek	-86.65635	31.40739	112
AL	Hog Creek	-85.45829	33.92260	189
AL	Hog Creek	-86.37415	34.25787	211
AL	Hog Creek Hollow	-86.37415	34.25565	211
AL	Hog Foot Creek	-86.51190	31.11907	139
AL	Hog Heaven	-87.17640	34.38815	241
AL	Hog Hollow	-87.05140	34.27927	226
AL	Hog Hollow	-88.02031	34.89370	325
AL	Hog Island	-85.65691	34.21259	213
AL	Hog Island (historical)	-85.04993	32.26876	114
AL	Hog Island (historical)	-87.43863	34.79314	292
AL	Hog Jaw	-86.56027	34.33232	221
AL	Hog Jaw Creek	-86.57416	34.34065	222
AL	Hog Mountain	-85.84968	33.07595	88
AL	Hog Mountain	-86.68777	33.98788	185
AL	Hog Mountain	-86.95417	34.21149	216
AL	Hog Mountain Goldmine	-85.85135	33.07262	88
AL	Hog Pen Branch	-86.76385	31.09462	148
AL	Hog Pen Branch	-85.92414	34.12954	199
AL	Hog Shoals	-87.47445	33.25290	151
AL	Hog Wallow Ridge	-88.41809	32.12792	205
AL	Hogan Creek	-87.32444	32.19931	102
AL	Hogbed Creek	-86.34858	32.65346	34
AL	Hogeland Creek	-86.78638	33.81260	169
AL	Hoggle Cemetery	-87.62641	34.17204	238
AL	Hoggle Church	-87.62780	34.17288	238
AL	Hoggle Ridge	-87.64002	34.15288	237
AL	Hogglesville	-87.49167	32.85429	128
AL	Hoghouse Creek	-87.32196	34.09316	217
AL	Hoghouse Point	-87.73142	34.64648	288
AL	Hogjaw Creek	-85.62497	34.99202	298
AL	Hogjaw Ridge	-85.66608	34.96925	295
AL	Hogjaw Valley	-85.68250	34.93806	291
AL	Hogley Wood Cemetery	-87.97918	32.89235	172
AL	Hogpen Branch	-86.64582	33.51122	133
AL	Hogpen Creek	-86.80304	33.27845	114
AL	Hogpen Hollow	-88.07559	34.98175	336
AL	Hogsick Creek	-87.22889	33.33234	141
AL	Hogskin Creek	-85.75469	34.69342	263
AL	Hogue Creek	-85.70886	34.77064	273
AL	Hogwood Branch	-87.49836	34.58370	273
AL	Hogyard Ridge	-86.20887	34.97286	290
AL	Hohenberg Field	-86.21191	32.54597	21
AL	Hohenlinden Plantation (historical)	-87.96029	32.74208	166
AL	Hoithlewalli (historical)	-86.08052	32.41958	18
AL	Hokes Bluff	-85.86636	33.99815	186
AL	Hokes Bluff Elementary School	-85.87025	33.99649	185
AL	Hokes Bluff Ferry (historical)	-85.88247	33.99649	185
AL	Hokes Bluff First Baptist Church	-85.87664	33.99482	185
AL	Hokes Bluff High School	-85.86997	34.01399	187
AL	Hokes Bluff Middle School	-85.86886	33.99621	185
AL	Hokes Bluff Volunteer Fire Department	-85.86558	33.99213	185
AL	Holbert Springs Primitive Baptist Church	-87.16113	34.87009	291
AL	Holcim Axis Quarry	-87.97731	30.94652	226
AL	Holcomb Branch	-87.90531	34.35760	270
AL	Holcomb Cemetery	-87.67696	33.98538	224
AL	Holcomb Lake	-86.54511	33.65215	146
AL	Holden Cemetery	-87.49306	34.08667	224
AL	Holden Cemetery	-87.47197	34.89564	303
AL	Holder Branch	-85.61247	34.90758	289
AL	Holder Cemetery	-86.71333	34.75565	269
AL	Holders Ferry (historical)	-87.89250	31.35933	190
AL	Holding Cemetery	-86.76000	34.64176	258
AL	Holdridge Branch	-85.77246	33.19567	104
AL	Holdridge Pond	-86.02124	32.95250	70
AL	Holdridges Mill (historical)	-86.90388	32.63291	68
AL	Holetah Creek	-88.20919	32.61541	186
AL	Holiday Beach	-87.17222	33.22234	129
AL	Holiday Gardens	-86.71054	33.52205	136
AL	Holiday Park	-87.78527	30.88185	219
AL	Holiday Park Estates	-86.66971	33.65316	149
AL	Holiday Plaza Shopping Center	-86.62638	34.71259	264
AL	Holiday Raceway	-87.16666	33.22234	128
AL	Holiday Shopping Center	-86.03053	34.64786	255
AL	Holiday Shores	-87.55917	33.39512	168
AL	Holiday Shores	-86.31721	34.44592	232
AL	Holiday Village	-85.76521	31.34100	122
AL	Holiness Chapel (historical)	-85.54882	31.10184	155
AL	Holiness Church	-86.25245	31.27850	120
AL	Holiness Church	-87.75334	32.07932	144
AL	Holiness Church	-87.78779	32.77652	151
AL	Holiness Church	-87.90057	32.18626	156
AL	Holiness Church	-87.94057	32.08515	161
AL	Holiness Church	-88.26614	32.35958	189
AL	Holiness Church	-88.27697	32.27847	190
AL	Holiness Church	-88.29306	30.76186	262
AL	Holiness Church	-88.39501	30.71908	272
AL	Holiness Church (historical)	-86.89108	31.52822	110
AL	Holiness Church (historical)	-86.27637	34.41231	228
AL	Holiness Tabernacle	-88.36670	32.43986	199
AL	Holiness Tabernacle (historical)	-85.40493	31.22518	149
AL	Holiness Temple of Alexandria	-85.84747	33.76343	161
AL	Holland Branch	-87.17194	33.11901	120
AL	Holland Branch	-86.38554	34.16704	201
AL	Holland Cemetery	-86.49637	32.58180	34
AL	Holland Cemetery	-86.11023	31.38822	108
AL	Holland Cemetery	-87.02164	31.28739	139
AL	Holland Cemetery	-86.37832	34.16121	200
AL	Holland Cemetery	-87.77003	34.65565	291
AL	Holland Chapel	-86.07776	34.75786	267
AL	Holland Cove	-86.17221	34.90675	283
AL	Holland Creek	-85.03271	32.48903	116
AL	Holland Creek	-85.34579	33.65344	167
AL	Holland Creek	-86.87500	34.99897	299
AL	Holland Creek Baptist Church	-85.01160	32.47014	118
AL	Holland Gin	-86.88723	34.96342	295
AL	Holland Place	-86.94390	34.79814	278
AL	Holland School (historical)	-86.38830	31.66905	77
AL	Hollands Chapel	-85.84775	34.62536	254
AL	Hollaway Point	-85.67608	34.86564	283
AL	Holley Branch	-86.01883	31.16406	134
AL	Holley Cemetery	-85.69718	32.77791	70
AL	Holley Cemetery	-86.43387	33.28539	104
AL	Holley Cemetery	-87.51362	32.84263	130
AL	Holley Creek	-87.16222	32.54736	88
AL	Holley Creek	-87.85500	31.18212	200
AL	Holley Creek Landing	-87.85444	31.18129	200
AL	Holley Crossroads	-85.68357	33.80149	169
AL	Holley Crossroads Missionary Baptist Church	-85.68524	33.80232	169
AL	Holley Hill	-85.33049	31.71072	113
AL	Holley Mill Creek	-86.09967	31.17351	132
AL	Holley Mitchell Church (historical)	-85.79079	32.40625	44
AL	Holley Pond	-86.24823	31.01046	149
AL	Holley Store	-86.09911	31.22239	127
AL	Holleys Ferry Access Point Park	-87.41166	31.97098	117
AL	Holliday Cemetery	-88.12142	33.85094	240
AL	Holliday Pond	-87.18946	34.68259	272
AL	Hollidays Pond	-86.73449	32.19276	48
AL	Hollifield Memorial Library	-85.47995	32.60763	78
AL	Holligan and Moore Cemetery	-88.12893	34.10233	261
AL	Holliman Branch	-85.20021	31.33740	151
AL	Holliman Cemetery	-87.91752	33.80455	223
AL	Holliman Lake	-87.05499	32.50847	77
AL	Holliman Lake Dam	-87.05499	32.50847	77
AL	Hollimans and O'Neals Mill (historical)	-85.08521	31.43545	151
AL	Hollinger Creek	-87.56832	31.44739	160
AL	Hollinger Creek	-87.61610	30.64880	229
AL	Hollingers Island	-88.11028	30.54825	267
AL	Hollingers Island Channel	-88.05944	30.52464	266
AL	Hollingers Island Church	-88.09611	30.55158	266
AL	Hollingers Island Elementary School	-88.09111	30.55130	265
AL	Hollingers Landing (historical)	-87.56888	31.44461	160
AL	Hollingsworth	-85.69774	33.82510	171
AL	Hollingsworth Cemetery	-87.84417	31.62877	170
AL	Hollingsworth Cemetery	-87.74335	33.78344	210
AL	Hollingsworth Mill Creek	-87.74724	33.79066	211
AL	Hollingsworth School (historical)	-85.69635	33.82732	171
AL	Hollingsworth School (historical)	-87.99530	33.00485	178
AL	Hollingworths School (historical)	-86.07080	33.58288	137
AL	Hollins	-86.14442	33.11762	85
AL	Hollins Baptist Church	-86.14803	33.11512	85
AL	Hollins Church of Christ	-86.14497	33.11845	85
AL	Hollins Fire Tower	-86.08858	33.17345	92
AL	Hollins Fire and Rescue	-86.14729	33.11541	85
AL	Hollins Hunter Camp	-86.12414	33.15789	90
AL	Hollins Spring Church	-86.15747	33.11373	84
AL	Hollins Springs Baptist Church	-86.24525	33.12373	85
AL	Hollins Springs Cemetery	-86.15719	33.11428	85
AL	Hollins Wildlife Camping Area	-86.12025	33.15651	90
AL	Hollins Wildlife Management Area	-86.12469	33.24984	100
AL	Hollis (historical)	-86.34996	31.58183	86
AL	Hollis Cemetery	-86.52776	33.46400	125
AL	Hollis Cemetery	-86.46054	33.53844	132
AL	Hollis Cemetery	-88.04503	33.90705	240
AL	Hollis Cemetery	-88.16615	33.88539	246
AL	Hollis Creek	-86.34912	31.27600	120
AL	Hollis Crossroads	-85.63718	33.52372	142
AL	Hollis Crossroads Volunteer Fire Department	-85.63396	33.51754	141
AL	Hollis Dam	-85.70663	33.89343	178
AL	Hollis Ferry (historical)	-87.41556	33.33900	154
AL	Hollis Memorial Church	-86.06887	34.61203	251
AL	Hollis Orange Blossom Square	-87.68389	30.40523	255
AL	Hollis Pond	-85.88692	31.40907	111
AL	Hollis Pond	-86.94351	34.00673	194
AL	Hollis Pond Dam	-85.88661	31.40850	111
AL	Hollis Pond Dam	-86.94500	34.00677	194
AL	Hollis School (historical)	-85.82523	31.81627	73
AL	Hollow Field Branch	-87.54892	34.59926	276
AL	Hollow Hills Park	-86.99444	33.82649	177
AL	Hollow Rock Branch	-85.84191	34.07621	195
AL	Holloway	-87.53864	34.89036	305
AL	Holloway Branch	-86.29801	31.34906	112
AL	Holloway Branch	-87.96115	34.28538	266
AL	Holloway Church	-85.96383	31.24350	127
AL	Holly Branch	-87.49555	31.75293	135
AL	Holly Creek	-87.93308	33.31901	190
AL	Holly Creek Church	-87.41918	33.84122	197
AL	Holly Ferry (historical)	-87.41305	31.96932	117
AL	Holly Grove	-87.42251	33.83872	197
AL	Holly Grove Baptist Church	-86.75276	32.94679	80
AL	Holly Grove Cemetery	-86.74971	32.94512	80
AL	Holly Grove Cemetery	-86.98164	31.30017	136
AL	Holly Grove Cemetery	-88.05614	33.56484	215
AL	Holly Grove Cemetery	-87.60110	30.78880	216
AL	Holly Grove Church	-87.00970	31.50266	118
AL	Holly Grove Church	-86.35443	34.17982	202
AL	Holly Grove Church	-86.23915	34.84398	276
AL	Holly Grove Methodist Church	-86.23245	31.29933	117
AL	Holly Grove Mine	-87.42501	33.84178	197
AL	Holly Grove Number 15 Mine	-87.40834	33.84872	197
AL	Holly Grove Post Office (historical)	-87.52501	33.84594	203
AL	Holly Grove School	-88.08475	33.55511	216
AL	Holly Grove School (historical)	-87.34668	34.17871	226
AL	Holly Hill Elementary School	-85.84577	31.33850	119
AL	Holly Hills	-87.77971	30.78297	227
AL	Holly Hills Country Club and Golf Course	-87.77555	30.78685	226
AL	Holly Holiness Church	-86.29941	32.39764	6
AL	Holly Hollow	-87.75975	34.31315	258
AL	Holly Mill Creek	-87.42054	31.61071	138
AL	Holly Pond	-86.61638	34.17426	204
AL	Holly Pond Cemetery	-86.62610	34.18121	205
AL	Holly Pond High School	-86.61833	34.17649	205
AL	Holly Pond Post Office	-86.61610	34.17454	204
AL	Holly Pond United Methodist Church	-86.60972	34.17426	204
AL	Holly Pond Volunteer Fire Department	-86.61501	34.17476	204
AL	Holly Spring	-86.81971	33.48538	136
AL	Holly Spring Branch	-88.00781	34.33510	273
AL	Holly Spring Cemetery	-85.57163	34.53925	250
AL	Holly Spring Church	-85.97578	31.64516	83
AL	Holly Spring Church	-87.98448	34.34315	273
AL	Holly Spring School (historical)	-86.25248	34.69120	259
AL	Holly Springs	-85.75135	33.65233	151
AL	Holly Springs	-86.47832	33.82454	164
AL	Holly Springs Baptist Church	-86.36581	33.07401	80
AL	Holly Springs Baptist Church	-85.75219	33.65205	151
AL	Holly Springs Baptist Church	-87.73612	33.12151	162
AL	Holly Springs Baptist Church	-87.61417	33.39067	171
AL	Holly Springs Cemetery	-87.73696	33.12095	162
AL	Holly Springs Cemetery	-87.61473	33.39067	171
AL	Holly Springs Cemetery	-87.99724	33.30706	194
AL	Holly Springs Cemetery	-87.98337	34.34343	273
AL	Holly Springs Church	-86.46026	33.82593	164
AL	Holly Springs Church	-87.99808	33.30734	194
AL	Holly Springs School (historical)	-85.75219	33.65233	151
AL	Holly Springs School (historical)	-86.25887	34.68898	259
AL	Holly Springs School (historical)	-87.79475	34.33232	262
AL	Holly Springs Volunteer Fire Department	-86.45782	33.82623	164
AL	Hollybranch Cemetery	-86.26858	32.83151	53
AL	Hollybrook Lake	-86.58915	33.45857	126
AL	Hollys Ferry (historical)	-86.12828	31.22100	127
AL	Hollytree	-86.25332	34.79898	271
AL	Hollytree Cemetery	-86.25665	34.80259	271
AL	Hollywood	-86.78304	33.47288	133
AL	Hollywood	-85.97248	34.72425	264
AL	Hollywood Cemetery	-87.21164	31.00629	175
AL	Hollywood Junior High School	-85.96470	34.73036	265
AL	Hollywood Park	-87.58917	33.18512	155
AL	Hollywood Volunteer Fire Department	-85.96124	34.71777	263
AL	Holman	-87.82335	33.27984	179
AL	Holman Bottom	-87.58612	33.22790	158
AL	Holman Cemetery	-86.25025	32.69235	37
AL	Holman Church	-87.82363	33.27734	179
AL	Holman Crossroads	-86.19247	33.10428	83
AL	Holman Elementary School	-86.75166	33.52955	138
AL	Holman Hill	-87.58334	33.22734	157
AL	Holmes Branch	-86.58693	33.41039	121
AL	Holmes Cemetery	-86.93556	34.33454	228
AL	Holmes Chapel Cemetery	-87.25891	34.28516	233
AL	Holmes Freewill Baptist Church	-85.67855	31.63739	97
AL	Holmes Gap	-86.85778	34.24565	217
AL	Holmes Medical Museum	-87.68480	30.40616	255
AL	Holmes Memorial Hospital (historical)	-87.68443	30.40603	255
AL	Holmes Pond	-85.87003	31.75678	76
AL	Holmes Prospect	-85.53523	33.40234	134
AL	Holmes Prospect	-85.55134	33.43150	136
AL	Holmes Street Baptist Church	-88.08556	30.73630	250
AL	Holmes Street Methodist Church	-86.58249	34.73648	266
AL	Holsombech Creek	-87.03527	32.79429	88
AL	Holston Chapel	-86.72360	33.82454	168
AL	Holstum Cemetery	-85.31800	32.92263	108
AL	Holstun Cemetery	-85.28272	32.90596	110
AL	Holt	-87.48445	33.23401	151
AL	Holt Baptist Church	-87.49528	33.23901	152
AL	Holt Cemetery	-86.22580	32.35236	3
AL	Holt Cemetery	-85.44939	32.46375	77
AL	Holt Cemetery	-85.20272	32.70263	106
AL	Holt Cemetery	-87.67112	32.28181	133
AL	Holt Cemetery	-87.48389	33.24178	151
AL	Holt Dam	-87.84003	33.98677	233
AL	Holt Damsite-Left Bank Public Use Area	-87.45389	33.25067	150
AL	Holt Damsite-Right Bank Public Use Area	-87.45611	33.25512	150
AL	Holt Elementary School	-87.49695	33.23984	152
AL	Holt High School	-87.48750	33.23678	151
AL	Holt Lake	-87.44917	33.25428	150
AL	Holt Lock and Dam	-87.45018	33.25277	149
AL	Holt Post Office	-87.50028	33.24067	152
AL	Holt Road Church	-86.89528	34.84703	282
AL	Holt Store (historical)	-86.89750	34.86398	284
AL	Holt Street Baptist Church	-86.32025	32.36486	6
AL	Holt Street Church of Christ	-86.32025	32.36403	6
AL	Holt Trestle	-86.99112	34.96314	297
AL	Holt United Methodist Church	-87.49750	33.23873	152
AL	Holts Bar	-88.16364	32.83985	187
AL	Holts Mill (historical)	-86.95084	34.79842	278
AL	Holtville	-86.32664	32.63624	32
AL	Holtville - Slapout Fire and Rescue	-86.31988	32.63462	31
AL	Holtville Church	-86.27636	32.61569	29
AL	Holtville High School	-86.32636	32.63569	32
AL	Holtville Park	-86.32886	32.64985	33
AL	Holtzclaw Lake	-86.78392	33.28968	115
AL	Holy Apostolic Faith Church	-85.82219	33.63816	148
AL	Holy Assembly Church	-88.32695	30.45214	289
AL	Holy Assembly Church of Jesus Christ	-86.25414	32.54569	21
AL	Holy Bible Church	-87.47667	33.37178	160
AL	Holy Church	-85.59327	31.43878	120
AL	Holy Church	-87.69806	32.10265	139
AL	Holy Church	-88.24250	30.66408	266
AL	Holy Church of God	-88.04555	30.67602	252
AL	Holy Church of God	-88.15556	30.64741	262
AL	Holy Church of God	-88.38473	30.54853	285
AL	Holy Church of God Pentecostal Number 1	-88.10167	30.71769	252
AL	Holy Church of God in Christ	-88.11076	30.72898	252
AL	Holy Cross Cemetery	-87.51695	32.45152	119
AL	Holy Cross Church	-87.33527	32.00681	109
AL	Holy Cross Episcopal Church	-87.51667	32.45152	119
AL	Holy Cross Lutheran Child Development Center	-87.51751	33.20540	151
AL	Holy Cross Lutheran Church	-87.51806	33.20567	151
AL	Holy Cross Lutheran Church	-88.14389	30.67658	258
AL	Holy Cross School	-87.39333	32.00626	114
AL	Holy Cross School	-87.90194	30.58491	251
AL	Holy Faith Mission Full Gospel Church	-85.67466	31.54294	106
AL	Holy Family Catholic Church	-86.88305	33.51066	141
AL	Holy Family Catholic church	-85.18855	32.87374	116
AL	Holy Family Church	-88.15834	30.71713	256
AL	Holy Family Elementary School	-86.88249	33.51066	141
AL	Holy Family High School	-86.88138	33.50983	141
AL	Holy Ghost Revival Center	-85.91802	33.94593	179
AL	Holy Ground Bar	-86.68526	32.35319	40
AL	Holy Hill Church	-86.48024	31.28906	120
AL	Holy Hill Church of Our Lord Jesus Christ	-86.18636	33.57177	135
AL	Holy Infant of Prague Catholic Church	-86.61138	33.62316	144
AL	Holy Name of Jesus Church	-88.27723	30.73713	263
AL	Holy Redeemer Catholic Church	-85.15132	31.89266	116
AL	Holy Rosary Catholic Church	-86.72721	33.54149	139
AL	Holy Spirit Catholic Church	-87.52667	33.17373	149
AL	Holy Spirit Catholic Church	-87.82780	33.71289	210
AL	Holy Spirit Catholic Church	-86.57360	34.68954	260
AL	Holy Spirit Episcopal Church	-87.70161	30.26106	270
AL	Holy Spirit High School	-87.52861	33.17361	150
AL	Holy Spirit School	-87.52778	33.17373	150
AL	Holy Spirit School	-86.57305	34.69065	260
AL	Holy Tabernacle	-86.48110	31.29971	119
AL	Holy Tabernacle Church	-86.45886	31.84682	60
AL	Holy Temple Church	-86.85330	31.28573	131
AL	Holy Temple Church of God	-87.06330	31.11657	157
AL	Holy Temple Church of God in Christ	-86.99306	34.61870	260
AL	Holy Temple Ministries	-85.39446	31.22168	150
AL	Holy Trinity	-85.00521	32.22237	119
AL	Holy Trinity Episcopal Church	-85.48356	32.59236	77
AL	Holy Trinity Ministry Church of God in Christ	-88.05631	30.66368	254
AL	Holy Trinity Post Office	-85.00632	32.22071	119
AL	Holyoke (historical)	-87.82777	30.72936	234
AL	Home Aid Cemetery	-86.90249	32.49069	62
AL	Home Benevolent School (historical)	-85.36245	32.62236	89
AL	Home Creek	-87.37779	33.93316	204
AL	Home Mission Cemetery	-88.31170	32.49986	194
AL	Home Place Church	-86.43054	33.95871	178
AL	Home of Grace for Women	-88.10636	30.76930	249
AL	Home of Mercy (historical)	-86.81110	33.52705	140
AL	Homeport Marina	-87.68518	30.28063	267
AL	Homer (historical)	-85.90719	34.26343	214
AL	Homer A Crow Dam	-87.71000	31.88682	147
AL	Homer Carpenter Dam	-88.04502	33.00346	182
AL	Homer Fieldhouse	-88.18919	32.58819	183
AL	Homestead	-86.46831	33.20595	96
AL	Homestead	-86.74721	33.37928	122
AL	Homewood	-86.80082	33.47177	134
AL	Homewood	-87.59944	31.36961	168
AL	Homewood Church of Christ	-86.79582	33.47511	134
AL	Homewood City Hall	-86.78916	33.47927	134
AL	Homewood Fire and Rescue Station 1	-86.78929	33.47929	134
AL	Homewood Fire and Rescue Station 2	-86.81790	33.46252	133
AL	Homewood Fire and Rescue Station 3	-86.83886	33.44726	133
AL	Homewood Fire and Rescue Station 4	-86.79397	33.46021	132
AL	Homewood Junior High School	-86.80805	33.47761	135
AL	Homewood Public Library	-86.78999	33.47761	134
AL	Homewood Senior High School	-86.79027	33.46066	132
AL	Homewood Suites Birmingham So	-86.71900	33.43500	127
AL	Honea (historical)	-86.36721	34.89175	281
AL	Honea Hollow	-86.39193	34.61009	250
AL	Honey Bluff	-86.37110	34.42565	230
AL	Honey Branch	-86.46999	34.08315	192
AL	Honey Cemetery	-86.37499	34.42898	230
AL	Honey Creek	-86.90054	32.02876	71
AL	Honey Creek	-86.44802	31.66099	79
AL	Honey Cutts Mill (historical)	-86.78999	32.89262	78
AL	Honey Ferry (historical)	-86.37554	34.42287	229
AL	Honey Hollow	-86.32721	34.76731	267
AL	Honey Jones Mill Creek	-86.18773	31.60460	84
AL	Honey Landing (historical)	-86.37637	34.42454	230
AL	Honeycomb Cemetery	-86.32304	34.45287	233
AL	Honeycomb Church	-86.32721	34.45342	233
AL	Honeycomb Church (historical)	-86.32193	34.45259	233
AL	Honeycomb Creek	-86.34637	34.43120	230
AL	Honeycomb Natural Bridge	-86.32889	34.45917	233
AL	Honeycomb Park	-86.30915	34.47620	235
AL	Honeycomb School (historical)	-86.29637	34.46314	234
AL	Honeycomb Snug Harbor	-86.29582	34.45564	233
AL	Honeycomb Spring	-86.26229	34.46427	234
AL	Honeycut Creek	-87.88166	30.87880	225
AL	Honeycutt (historical)	-85.61274	33.64399	155
AL	Honeycutt Creek	-86.78971	32.86929	76
AL	Honeycutt Institute (historical)	-86.57386	31.98432	51
AL	Honeysuckle Creek	-87.00388	32.80013	86
AL	Honeysuckle Hills	-85.82744	31.35684	118
AL	Honeysuckle Hills Park	-86.83110	33.48233	136
AL	Honeysuckle Middle School	-85.43410	31.20490	150
AL	Honig School (historical)	-86.94139	34.14704	208
AL	Honor Branch	-86.93110	32.18070	66
AL	Honor Camp Number Four	-86.23747	32.46514	12
AL	Honoraville	-86.40608	31.85071	58
AL	Honoraville Church	-86.40775	31.84932	58
AL	Honoraville Junior High School	-86.40636	31.85182	58
AL	Honoraville Volunteer Fire Department	-86.40993	31.84782	58
AL	Hood	-86.15498	33.88843	170
AL	Hood Cemetery	-86.48971	34.05649	190
AL	Hood Creek	-86.49054	34.04982	189
AL	Hood Spring	-87.10543	34.51715	252
AL	Hood-Graves Mine	-85.97413	33.23511	101
AL	Hoods Creek	-86.39887	33.99788	182
AL	Hoods Crossroads	-86.42026	33.98843	182
AL	Hoods School	-86.41026	33.99704	182
AL	Hooie Cemetery	-87.24863	34.83425	290
AL	Hook Street Baptist Church	-87.71114	34.74537	297
AL	Hooker Point	-86.66499	33.46011	128
AL	Hooker Spring Branch	-87.56975	34.45398	263
AL	Hooks	-85.23244	32.19182	98
AL	Hooks Crossroads	-85.85273	32.05154	51
AL	Hooks Lake	-85.97385	34.04964	190
AL	Hooks Lake	-87.96638	31.16588	209
AL	Hooks Lake Spring	-85.96164	34.04815	190
AL	Hooks Lake Subdivision	-85.97303	34.05065	190
AL	Hoomesville Church Cemetery	-86.81746	31.20017	139
AL	Hoomesville Church of Christ	-86.81691	31.20045	139
AL	Hooper Academy	-86.35969	32.25736	15
AL	Hooper Cemetery	-86.46971	33.80816	162
AL	Hooper City	-86.84110	33.55538	144
AL	Hooper Field	-85.68966	31.40684	118
AL	Hooper Gap	-86.47360	33.81732	163
AL	Hoover	-86.81138	33.40539	127
AL	Hoover	-86.73555	34.85537	281
AL	Hoover Business Park	-86.79443	33.39316	125
AL	Hoover City Hall	-86.80610	33.38761	125
AL	Hoover Dam	-86.43498	33.61010	140
AL	Hoover Fire Department Station 1	-86.80899	33.40224	127
AL	Hoover Fire Department Station 2	-86.83104	33.38600	126
AL	Hoover Fire Department Station 3	-86.80429	33.35364	122
AL	Hoover Fire Department Station 4	-86.79956	33.38873	125
AL	Hoover Fire Department Station 5	-86.85561	33.41151	130
AL	Hoover Fire Department Station 6	-86.87519	33.35155	125
AL	Hoover Fire Department Station 7	-86.71393	33.40172	123
AL	Hoover Fire Department Station 8	-86.66422	33.41581	123
AL	Hoover Lake	-86.43492	33.61011	140
AL	Hoover Mall Shopping Center	-86.80471	33.39844	126
AL	Hoover Metropolitan Stadium	-86.84944	33.33861	122
AL	Hoover Sports Park Central	-86.82389	33.38333	126
AL	Hoover Sports Park East	-86.76194	33.40000	125
AL	Hoover Sports Park West	-86.84222	33.37361	125
AL	Hoover Square Shopping Center	-86.80693	33.39205	126
AL	Hoover Village Shopping Center	-86.80693	33.40455	127
AL	Hope African Methodist Episcopal Zion Chapel	-88.06583	30.69602	252
AL	Hope Chapel African Methodist Episcopal Zion Church	-88.11622	30.74919	251
AL	Hope Church	-87.06416	32.25431	77
AL	Hope Church	-87.44556	33.22123	147
AL	Hope Church	-87.96001	32.18292	162
AL	Hope Haven School	-87.71920	34.72315	295
AL	Hope Hill Church	-87.64528	32.34625	131
AL	Hope Hull	-86.35719	32.26986	13
AL	Hope Hull Church	-86.42803	32.19598	24
AL	Hope Hull Church	-86.35691	32.14376	25
AL	Hope Hull Post Office	-86.36525	32.26986	14
AL	Hope Hull Recreation Center	-86.37664	32.26847	15
AL	Hope Hull United Methodist Church	-86.36608	32.26931	14
AL	Hope Independent Church	-86.19998	34.16565	201
AL	Hope Lutheran Church	-86.71943	33.52538	137
AL	Hope Memorial Church	-85.52801	33.17040	113
AL	Hope Mine	-87.05000	33.88899	185
AL	Hope Mine	-87.54585	33.91816	211
AL	Hope Post Office	-87.72558	34.99036	322
AL	Hope School	-87.06527	32.25542	77
AL	Hope School (historical)	-87.49250	33.31817	157
AL	Hope Well Cemetery	-86.65942	32.23459	40
AL	Hope-Galloway Mine	-87.54168	33.91400	210
AL	Hopeful	-85.91247	33.49400	130
AL	Hopeful Primitive Baptist Church	-85.71105	31.48711	109
AL	Hopewell	-85.30244	32.52514	92
AL	Hopewell	-86.93860	33.36067	128
AL	Hopewell	-85.38273	33.63205	163
AL	Hopewell	-85.72941	34.20121	210
AL	Hopewell	-86.46804	34.25621	212
AL	Hopewell	-86.04748	34.37453	225
AL	Hopewell African Methodist Episcopal Church	-87.21444	32.93346	110
AL	Hopewell African Methodist Episcopal Church	-86.77194	33.54056	140
AL	Hopewell African Methodist Episcopal Church	-87.62058	34.84648	304
AL	Hopewell Baptist Church	-86.62970	32.81402	62
AL	Hopewell Baptist Church	-87.02971	32.42069	73
AL	Hopewell Baptist Church	-86.61052	31.25767	126
AL	Hopewell Baptist Church	-87.78168	32.34986	143
AL	Hopewell Baptist Church	-87.48695	33.20373	149
AL	Hopewell Baptist Church	-87.85417	31.77738	164
AL	Hopewell Baptist Church	-87.88918	33.01235	169
AL	Hopewell Baptist Church	-86.14859	33.88788	170
AL	Hopewell Baptist Church	-88.10585	32.14598	176
AL	Hopewell Baptist Church	-86.78055	34.08343	198
AL	Hopewell Baptist Church	-86.04803	34.37453	225
AL	Hopewell Baptist Church	-87.03695	34.40510	238
AL	Hopewell Baptist Church of Magazine Point	-88.05567	30.73483	248
AL	Hopewell Branch	-86.76942	31.92348	68
AL	Hopewell Branch	-88.10363	32.13904	176
AL	Hopewell Cemetery	-86.43358	31.87793	56
AL	Hopewell Cemetery	-86.75026	31.99765	61
AL	Hopewell Cemetery	-86.63054	32.81374	62
AL	Hopewell Cemetery	-86.05273	31.66377	79
AL	Hopewell Cemetery	-86.63886	31.68655	83
AL	Hopewell Cemetery	-85.76855	31.69516	87
AL	Hopewell Cemetery	-85.30189	32.52514	92
AL	Hopewell Cemetery	-85.51301	33.06346	105
AL	Hopewell Cemetery	-87.21472	32.93401	110
AL	Hopewell Cemetery	-87.40556	32.64263	112
AL	Hopewell Cemetery	-87.21666	33.19678	129
AL	Hopewell Cemetery	-87.82835	32.42653	148
AL	Hopewell Cemetery	-87.48695	33.20401	149
AL	Hopewell Cemetery	-87.88835	33.01290	169
AL	Hopewell Cemetery	-87.79389	31.56349	170
AL	Hopewell Cemetery	-88.10557	32.14570	176
AL	Hopewell Cemetery	-87.70168	33.59372	192
AL	Hopewell Cemetery	-86.78083	34.08232	197
AL	Hopewell Cemetery	-88.01891	33.39151	201
AL	Hopewell Cemetery	-85.46246	34.10593	208
AL	Hopewell Cemetery	-87.79669	33.75511	211
AL	Hopewell Cemetery	-87.71196	33.91205	219
AL	Hopewell Christian Methodist Episcopal Church	-87.34054	31.52655	138
AL	Hopewell Church	-86.49914	32.17209	31
AL	Hopewell Church	-86.63831	32.26347	37
AL	Hopewell Church	-85.94079	32.11848	40
AL	Hopewell Church	-86.61359	31.93459	58
AL	Hopewell Church	-86.92554	31.99487	75
AL	Hopewell Church	-87.01082	32.11348	76
AL	Hopewell Church	-86.63803	31.68655	83
AL	Hopewell Church	-87.14444	32.34930	83
AL	Hopewell Church	-85.76855	31.69516	87
AL	Hopewell Church	-87.08665	31.90404	93
AL	Hopewell Church	-87.08721	31.86571	95
AL	Hopewell Church	-85.51329	33.06373	105
AL	Hopewell Church	-87.40445	32.64346	112
AL	Hopewell Church	-87.40472	32.64124	112
AL	Hopewell Church	-85.42827	31.59822	115
AL	Hopewell Church	-86.94694	33.36206	129
AL	Hopewell Church	-87.22694	33.19206	130
AL	Hopewell Church	-87.82862	32.42625	148
AL	Hopewell Church	-86.50773	31.00240	152
AL	Hopewell Church	-85.40551	33.60233	159
AL	Hopewell Church	-87.15833	33.59511	161
AL	Hopewell Church	-86.68166	33.76760	161
AL	Hopewell Church	-85.89247	33.81927	166
AL	Hopewell Church	-86.13997	33.87232	168
AL	Hopewell Church	-87.90418	32.98790	170
AL	Hopewell Church	-86.37387	33.96565	179
AL	Hopewell Church	-87.70224	33.59428	193
AL	Hopewell Church	-85.45996	34.11621	209
AL	Hopewell Church	-87.49140	34.01372	217
AL	Hopewell Church	-86.42332	34.90120	283
AL	Hopewell Church	-85.75219	34.95814	292
AL	Hopewell Church (historical)	-86.11803	33.22011	97
AL	Hopewell Church (historical)	-86.94888	33.35317	128
AL	Hopewell Church (historical)	-87.71113	33.91260	219
AL	Hopewell Church (historical)	-87.58835	33.99538	220
AL	Hopewell Church of Christ	-87.57753	34.59870	277
AL	Hopewell Cumberland Presbyterian Church (historical)	-87.60142	34.85286	304
AL	Hopewell Elementary School	-86.94749	33.35428	128
AL	Hopewell High School	-88.02586	33.37623	200
AL	Hopewell Hill Cemetery	-88.00030	33.18818	187
AL	Hopewell Lake	-86.67666	33.76510	161
AL	Hopewell Methodist Church	-87.79305	31.54238	171
AL	Hopewell Methodist Church (historical)	-86.48637	33.58621	138
AL	Hopewell Missionary Baptist Church	-86.46165	34.25232	211
AL	Hopewell Mountain	-86.11747	33.89676	171
AL	Hopewell Presbyterian Church (historical)	-87.51222	32.44875	118
AL	Hopewell Primitive Baptist Church	-86.05412	31.66488	79
AL	Hopewell Primitive Baptist Church	-87.16000	33.11318	119
AL	Hopewell Primitive Baptist Church	-87.79669	33.75511	211
AL	Hopewell School	-87.00943	32.11348	76
AL	Hopewell School (historical)	-87.01082	32.11348	76
AL	Hopewell School (historical)	-87.38722	32.63402	110
AL	Hopewell School (historical)	-86.60913	31.25878	126
AL	Hopewell School (historical)	-87.48834	33.20429	149
AL	Hopewell School (historical)	-87.79696	33.75455	211
AL	Hopewell School (historical)	-87.57697	34.59898	277
AL	Hopewell School (historical)	-87.59169	34.86398	304
AL	Hopewell Springs	-85.71774	33.94066	183
AL	Hopewell United Methodist Church	-85.30244	32.52514	92
AL	Hopewell United Methodist Church	-85.18966	32.76208	110
AL	Hopewell Volunteer Fire Department	-86.61182	31.25798	126
AL	Hopkins	-87.07861	33.48455	147
AL	Hopkins Memorial Mission Center Chapel	-86.02497	34.01454	185
AL	Hopn Branch	-85.47272	31.59156	113
AL	Hopper	-86.25137	34.05537	188
AL	Hopson Lake	-87.95946	33.71949	219
AL	Hopwood Cemetery	-86.81722	34.99175	297
AL	Horak Airport	-87.54374	30.46748	243
AL	Horeb Baptist Church	-87.71111	31.65071	158
AL	Horn Branch	-85.97219	33.37039	116
AL	Horn Branch	-88.08613	32.18292	173
AL	Horn Branch	-88.30253	32.16487	194
AL	Horn Branch	-85.74581	34.90341	286
AL	Horn Creek	-87.38667	33.36039	153
AL	Horn Hill	-86.31662	31.24573	123
AL	Horn Memorial Church	-86.04164	33.28900	105
AL	Horn Mountain	-86.07469	33.29789	106
AL	Horn Mountain Lookout Tower	-86.07441	33.29789	106
AL	Horn School (historical)	-85.41049	31.77489	103
AL	Horn Valley	-86.05969	33.26484	102
AL	Hornady	-85.86524	32.46514	39
AL	Hornbuckle Hollow	-86.57499	34.50537	240
AL	Horne Dam	-85.98663	33.32011	110
AL	Horne Ridge	-88.17585	31.96321	186
AL	Hornes Lakes	-85.98504	33.32159	110
AL	Hornet Creek	-86.36412	31.48433	97
AL	Hornet Stadium	-86.29858	32.36486	4
AL	Horns Branch	-88.10502	32.51764	175
AL	Horns Memorial Cemetery	-86.04191	33.28872	105
AL	Horns Peak Mine	-85.91552	33.31484	111
AL	Horns Valley	-86.03052	33.26678	103
AL	Hornsboro (historical)	-88.02140	32.06487	169
AL	Hornsby Cemetery	-85.91385	32.62319	44
AL	Hornsbytown	-85.91690	32.55069	39
AL	Hornyhead Branch	-85.32134	33.12234	122
AL	Horrace Williams Landing (historical)	-88.09251	31.73905	186
AL	Horse Branch	-86.92470	31.65571	100
AL	Horse Branch	-87.24055	32.99873	116
AL	Horse Branch	-86.75274	31.07434	150
AL	Horse Branch	-88.08559	34.88064	327
AL	Horse Cove	-86.42110	34.63537	253
AL	Horse Creek	-86.36108	31.82543	60
AL	Horse Creek	-86.36913	31.64627	80
AL	Horse Creek	-85.77968	33.43178	127
AL	Horse Creek	-85.95052	33.46927	127
AL	Horse Creek	-87.40278	33.08040	134
AL	Horse Creek	-87.39222	33.52789	168
AL	Horse Creek	-88.05418	32.07709	172
AL	Horse Creek	-87.13944	33.71344	172
AL	Horse Creek	-87.77418	33.26706	174
AL	Horse Creek	-87.38473	33.80233	192
AL	Horse Creek	-87.36363	34.34982	244
AL	Horse Creek Cemetery	-85.91774	33.42233	122
AL	Horse Creek Valley	-85.94997	33.46622	126
AL	Horse Pens Forty	-86.30970	33.92093	174
AL	Horse Stomp Campground	-86.41164	32.91846	64
AL	Horseapple Cove	-87.98143	34.73676	309
AL	Horseblock Mountain	-85.70663	33.56538	144
AL	Horsecollar Branch	-87.50415	30.56547	231
AL	Horsehead Creek	-85.77747	34.67092	260
AL	Horselot Branch	-85.14327	32.36820	105
AL	Horselot Pond	-87.48864	34.67259	281
AL	Horsemill Mountain	-87.64392	34.45982	266
AL	Horseneck Church	-87.69249	30.89657	212
AL	Horseneck Creek	-87.64916	31.24878	180
AL	Horseneck Creek	-87.64499	30.87769	210
AL	Horsepen Branch	-86.13831	34.07676	191
AL	Horsepen Branch	-85.57829	34.09982	203
AL	Horsepen Creek	-87.90555	31.23156	200
AL	Horsepond Branch	-87.13168	34.22871	223
AL	Horseshoe Bend	-85.74163	32.96762	83
AL	Horseshoe Bend	-86.62305	33.92065	177
AL	Horseshoe Bend	-87.91611	31.33434	194
AL	Horseshoe Bend	-87.22446	34.16399	220
AL	Horseshoe Bend	-85.92831	34.39648	228
AL	Horseshoe Bend	-87.74975	34.27288	254
AL	Horseshoe Bend	-87.34835	34.55009	264
AL	Horseshoe Bend	-87.96504	34.38038	275
AL	Horseshoe Bend	-86.13221	34.84120	276
AL	Horseshoe Bend	-87.86587	34.74565	304
AL	Horseshoe Bend Bridge	-87.96976	34.37954	275
AL	Horseshoe Bend National Military Park	-85.73635	32.97596	84
AL	Horseshoe Creek	-86.11998	34.22371	207
AL	Horseshoe Gap	-86.18942	33.76427	156
AL	Horseshoe Lake	-88.06709	31.65347	188
AL	Horseshoe Lake (historical)	-88.10308	32.78846	180
AL	Horseshoe Mountain	-87.36473	33.86316	196
AL	Horseshoe Pond	-85.94741	34.86379	280
AL	Horsetrough Creek	-85.75913	33.27956	112
AL	Horsley Lake	-86.16831	34.23537	208
AL	Horst Pond	-86.65776	33.52260	135
AL	Horton	-86.29692	34.20093	205
AL	Horton	-85.84636	34.38453	228
AL	Horton Branch	-86.84080	31.34350	125
AL	Horton Branch	-85.81191	34.36676	227
AL	Horton Branch	-88.13754	34.41427	287
AL	Horton Cemetery	-86.79497	31.34239	123
AL	Horton Cemetery	-88.05474	32.99624	183
AL	Horton Cemetery	-88.06113	32.99679	183
AL	Horton Creek	-86.02608	33.97788	181
AL	Horton Gap	-86.02470	34.17732	203
AL	Horton Hollow	-87.07723	34.90314	292
AL	Horton Mill Bridge	-86.44887	34.00760	184
AL	Horton Mountain	-87.31724	34.57704	265
AL	Horton School (historical)	-86.30470	34.20260	205
AL	Horton School (historical)	-86.64138	34.58759	250
AL	Horton Shoal	-85.43412	33.23595	124
AL	Horton Shoal Branch	-85.44217	33.23706	124
AL	Horton Spring	-87.31919	34.58238	266
AL	Horton Spring	-86.25475	34.86981	279
AL	Horton Spring Branch	-86.40443	34.30370	216
AL	Horton-Joiner Cemetery	-86.63999	34.58120	249
AL	Hortons Mill	-86.44721	34.00926	184
AL	Hortons Mill (historical)	-86.50887	33.17789	94
AL	Hortons Plaza Shopping Center	-87.06580	31.09879	159
AL	Hosanna Church	-85.78410	31.33045	122
AL	Hosea Cemetery	-87.73584	32.09098	142
AL	Hosea Mathis Dam	-85.57993	31.19851	144
AL	Hosea Mathis Lake	-85.57993	31.19851	144
AL	Hospilika Creek	-85.13271	32.46681	107
AL	Host	-86.26718	31.49100	96
AL	Hostler Creek	-86.25331	33.08401	81
AL	Hot Spur (historical)	-86.40109	33.42511	119
AL	Hotamville	-87.94001	31.99237	164
AL	Hotel Cemetery	-87.26305	32.08626	99
AL	Hotel Cemetery	-87.78889	31.52600	172
AL	Hough Cemetery	-86.59944	34.54565	245
AL	Houpt Cemetery	-87.92363	32.52569	158
AL	House (historical)	-85.85274	33.59038	142
AL	House Bluff	-86.72054	32.40569	44
AL	House Creek	-86.70276	32.35764	42
AL	House of Delivery of Apostles Church	-88.11040	30.73116	252
AL	House of God Church	-86.32080	32.36347	6
AL	House of God Saints in Christ Church	-85.84608	33.66899	151
AL	House of Happiness Church	-86.10720	34.64009	254
AL	House of Happiness School (historical)	-86.10804	34.64009	254
AL	House of Prayer	-86.70164	31.86265	69
AL	House of Prayer	-85.37708	31.21799	151
AL	House of Prayer	-87.58254	31.59361	151
AL	House of Prayer Church	-87.28776	31.59627	129
AL	House of Prayer Church	-86.29859	33.59427	137
AL	House of Prayer Church	-85.65466	31.15157	145
AL	House of Prayer Church	-87.78084	32.08904	147
AL	House of Prayer Church	-85.87302	33.99677	185
AL	House of Prayer Church	-88.23057	31.79738	196
AL	House of Prayer Church	-87.27390	33.93288	199
AL	House of Prayer Church	-85.64997	34.55564	250
AL	House of Prayer Freewill	-86.75194	34.26037	216
AL	House of Prayer Holiness Church	-87.12534	31.25781	147
AL	Household of Faith Church	-85.30467	32.68680	97
AL	Houser Hall	-87.54472	33.21444	154
AL	Houses Ferry (historical)	-86.44998	32.85846	58
AL	Houses Island	-86.45831	32.86762	60
AL	Houses Lake	-87.56657	33.27140	159
AL	Housh Chapel Cemetery	-87.80141	33.79427	215
AL	Houshs Chapel Church of Christ	-87.80141	33.79483	215
AL	Houston	-87.25807	34.14149	219
AL	Houston Academy	-85.44854	31.24406	145
AL	Houston Baptist Church Cemetery	-87.25778	34.14444	219
AL	Houston Branch	-85.95942	34.79231	272
AL	Houston Bridge	-86.28943	34.37092	223
AL	Houston Cemetery	-88.16891	32.62014	182
AL	Houston Cemetery	-86.77083	34.48593	241
AL	Houston Cemetery	-86.89639	34.67148	263
AL	Houston Cemetery	-87.36752	34.74370	284
AL	Houston Cemetery	-87.43030	34.82036	294
AL	Houston Church	-87.26029	34.16705	221
AL	Houston Church of God Cemetery	-87.26139	34.16861	222
AL	Houston Cole Library	-85.76274	33.82399	169
AL	Houston Corner	-87.63420	34.72981	293
AL	Houston County	-85.30252	31.15318	161
AL	Houston County Courthouse	-85.39243	31.22545	150
AL	Houston County Farm Center	-85.37368	31.19333	154
AL	Houston County Health Center	-85.39688	31.22101	150
AL	Houston County Health Department	-85.39320	31.22469	150
AL	Houston County High School	-85.11326	31.29379	160
AL	Houston County Jail	-85.40320	31.22635	149
AL	Houston County Port Authority Industrial Park	-85.09576	31.29202	161
AL	Houston County Public Library Ashford Branch	-85.23393	31.18154	162
AL	Houston Hill Junior High School	-86.29136	32.37708	4
AL	Houston Hollow	-86.05693	34.82008	274
AL	Houston Hollow	-86.15360	34.93397	286
AL	Houston Jail	-87.25751	34.14111	219
AL	Houston Library	-85.39493	31.22851	149
AL	Houston Lookout Tower	-85.15104	31.10490	174
AL	Houston Memorial Library	-86.97501	34.80370	279
AL	Houston Memorial United Methodist Church Cemetery	-87.25862	34.14306	219
AL	Houston Mine	-87.12805	33.24956	128
AL	Houston Post Office	-87.25751	34.14121	219
AL	Houston Recreation Site	-87.29807	34.12455	219
AL	Houston Spring	-85.95796	34.81123	274
AL	Houston Union Church	-87.25724	34.14483	219
AL	Houston Union Church Cemetery	-87.25667	34.14416	219
AL	Houston Volunteer Fire Department	-87.25833	34.14182	219
AL	Houstons Island (historical)	-88.08002	32.63513	174
AL	Houstons Landing (historical)	-88.08113	32.63291	174
AL	Houstons Store (historical)	-85.33160	31.81683	106
AL	Houstontown	-87.43502	34.82731	295
AL	Houstonville	-87.90027	30.50186	258
AL	Houten Branch	-87.96308	33.22873	187
AL	Hovaters Mill (historical)	-87.81753	34.54843	283
AL	Howard	-87.56751	33.85427	206
AL	Howard Branch	-86.43804	33.49233	127
AL	Howard Branch	-87.77114	34.28954	256
AL	Howard Brown Dam	-87.85668	32.78013	157
AL	Howard Brown Lake	-87.85668	32.78013	157
AL	Howard Building	-86.88306	33.45222	135
AL	Howard Cemetery	-86.14052	32.89957	61
AL	Howard Cemetery	-86.46052	31.74571	70
AL	Howard Chapel	-85.32966	32.35514	87
AL	Howard Chapel	-86.17942	33.46622	123
AL	Howard Church of Christ	-87.57057	33.85400	206
AL	Howard Cooper Bridge	-87.13972	32.94457	105
AL	Howard Creek	-86.71859	32.39375	44
AL	Howard Creek	-86.10773	31.71516	73
AL	Howard Dam	-85.67662	32.33514	55
AL	Howard Dam	-86.19497	33.20678	94
AL	Howard E Smith Dam	-88.23001	31.02018	239
AL	Howard E Smith Lake	-88.22896	31.01949	239
AL	Howard Island (historical)	-87.26196	34.75731	282
AL	Howard Johnson Express	-85.59460	33.62700	154
AL	Howard Johnson Express Inn - Birmingham	-86.83420	33.45850	134
AL	Howard Johnson Express Inn - Dothan	-85.40670	31.19350	152
AL	Howard Johnson Express Oxford	-85.82950	33.60580	144
AL	Howard Johnson Inn	-85.87970	34.27520	216
AL	Howard Johnson Inn Mobile AL	-88.11800	30.65500	259
AL	Howard Johnson Inn Tuscaloosa AL	-87.53460	33.16280	149
AL	Howard Johnson Montgomery	-86.16650	32.37020	9
AL	Howard Lake	-85.60996	34.50620	246
AL	Howard Lamar Dam	-85.62662	32.33348	59
AL	Howard Landing	-87.56582	31.45600	159
AL	Howard Mine	-85.67246	32.91151	82
AL	Howard School (historical)	-87.28752	34.88897	297
AL	Howard Town Baptist Church	-88.21168	31.37156	215
AL	Howard Town Cemetery	-88.21112	31.37156	215
AL	Howards Bar	-88.11252	32.80874	181
AL	Howards Chapel Cemetery	-85.61611	34.50528	246
AL	Howards Grove Church	-85.25688	31.10490	168
AL	Howards Landing (historical)	-85.03771	32.15376	117
AL	Howards Lower Bar	-88.11086	32.80680	181
AL	Howards Mill Creek	-85.06271	31.13963	176
AL	Howards Pond	-86.17714	32.89689	60
AL	Howe	-85.16410	32.01849	110
AL	Howell Cemetery	-86.14024	32.24625	17
AL	Howell Cemetery	-87.99529	32.14042	165
AL	Howell Cemetery	-85.50329	34.17287	213
AL	Howell Cemetery	-85.55135	34.18176	213
AL	Howell Creek	-85.26994	31.85544	109
AL	Howell Dam	-86.42998	33.75177	156
AL	Howell Lake	-86.41812	33.74726	155
AL	Howell Pond	-85.45594	31.30969	139
AL	Howell School (historical)	-87.39778	33.04540	131
AL	Howell and Graves School	-87.63558	34.73370	293
AL	Howells	-86.20911	31.05240	145
AL	Howells Camp	-87.41278	33.35095	154
AL	Howells Cove	-86.15997	33.49205	126
AL	Howells Cove	-86.14442	33.56594	134
AL	Howells Crossroads	-85.54552	34.17815	213
AL	Howells Ferry Heights	-88.26112	30.74380	261
AL	Howells Grove School (historical)	-85.50357	33.56011	151
AL	Howells Mill (historical)	-86.30192	33.46677	123
AL	Howelton	-86.18359	34.05593	189
AL	Howelton Cemetery	-86.17748	34.05065	188
AL	Howelton Methodist Church	-86.17998	34.05649	189
AL	Howelton School (historical)	-86.18053	34.05649	189
AL	Howitzer Hill	-85.78913	33.70399	156
AL	Howles Grove Church (historical)	-85.49079	33.55566	151
AL	Howse Camp	-87.41584	33.35984	155
AL	Howton	-87.34028	33.25901	142
AL	Howton Camp	-87.18000	33.55622	159
AL	Howton Subdivision	-87.51417	33.18679	149
AL	Howtons Ferry (historical)	-87.28472	33.48317	158
AL	Hub (historical)	-87.98393	34.60982	297
AL	Hub Neck	-88.09723	31.19628	217
AL	Hubbard	-86.81804	32.89901	80
AL	Hubbard Canyon	-87.48086	34.31510	245
AL	Hubbard Cemetery	-85.81662	32.03265	55
AL	Hubbard Cemetery	-86.61860	33.27872	108
AL	Hubbard Cemetery	-86.26498	33.45650	122
AL	Hubbard Cemetery	-87.27583	33.04429	122
AL	Hubbard Creek	-85.89802	33.45289	126
AL	Hubbard Creek	-87.47252	34.32260	246
AL	Hubbard Dam	-85.19327	32.52181	102
AL	Hubbard Elementary School	-87.30974	34.68120	276
AL	Hubbard Lake	-85.19308	32.52112	102
AL	Hubbard Landing	-87.87055	31.06268	210
AL	Hubbard Memorial Methodist Church	-88.10611	30.70713	254
AL	Hubbard Plantation (historical)	-87.50697	34.31288	246
AL	Hubbard Springs Cemetery	-87.31444	33.02707	124
AL	Hubbard Springs Free Will Baptist Church	-87.31444	33.02512	124
AL	Hubbards Lake	-86.53955	33.67590	149
AL	Hubbards Lake Dam	-86.54165	33.67344	148
AL	Hubbards Mill (historical)	-87.88999	30.84741	228
AL	Hubbards Mill (historical)	-87.50280	34.30871	246
AL	Hubbards Store (historical)	-85.78940	32.11043	52
AL	Hubbert Mill Creek	-87.80002	33.79427	215
AL	Hubbertsville Gas Field	-87.74030	33.82455	214
AL	Hubbertville	-87.74002	33.82788	214
AL	Hubbertville Cemetery	-87.74085	33.82788	214
AL	Hubbertville Church of Christ	-87.74141	33.82872	214
AL	Hubbertville High School	-87.74224	33.82983	214
AL	Hubbertville Volunteer Fire Department	-87.73430	33.85051	215
AL	Hubie Cauthen Number 1 Dam	-86.26163	32.12848	25
AL	Hubie Cauthen Number 2 Dam	-86.25663	32.13515	25
AL	Hubie Cauthen Number One Lake	-86.26163	32.12848	25
AL	Hubie Cauthen Number Two Lake	-86.25663	32.13515	25
AL	Huckaba Bridge	-86.95140	34.39593	235
AL	Huckabaa Pond	-86.41614	31.08439	142
AL	Huckaby Lake Dam	-86.81166	33.34344	121
AL	Huckaville	-86.41606	31.07962	142
AL	Huckeby Branch	-88.11058	33.37429	207
AL	Huckleberry Branch	-86.34580	31.77654	65
AL	Huckleberry Branch	-86.80888	33.41205	128
AL	Huckleberry Branch	-87.19666	33.47705	152
AL	Huckleberry Branch	-86.75361	34.23593	213
AL	Huckleberry Creek	-85.82578	31.55878	97
AL	Huddleston Cove	-85.85525	34.88619	283
AL	Huddon Creek	-87.64864	34.85620	306
AL	Hudgens Pond	-86.27872	31.21490	127
AL	Hudgins Cemetery	-85.80970	34.65286	258
AL	Hudgins Cemetery	-85.99137	34.68008	259
AL	Hudson Bay	-88.11306	30.26326	292
AL	Hudson Branch	-86.25498	33.35011	110
AL	Hudson Branch Wastewater Treatment Plant	-87.30006	31.52748	135
AL	Hudson Cemetery	-86.24746	31.93710	47
AL	Hudson Cemetery	-86.13162	31.49516	96
AL	Hudson Cemetery	-85.66024	33.72177	161
AL	Hudson Cemetery	-87.18307	34.79148	283
AL	Hudson Cemetery	-86.33554	34.98425	291
AL	Hudson Creek	-86.41581	32.51680	23
AL	Hudson Dam	-85.11660	32.49847	108
AL	Hudson Dam	-85.22994	33.07679	125
AL	Hudson Elementary School	-86.80471	33.55622	142
AL	Hudson Gardens	-86.93583	33.42733	135
AL	Hudson Grove	-86.93083	33.43122	135
AL	Hudson High School	-87.03305	32.42264	73
AL	Hudson Lake	-85.22994	33.07679	125
AL	Hudson Mine	-85.88830	33.34678	115
AL	Hudson Mobile Home Park	-87.29250	33.87250	194
AL	Hudson Settlement	-87.29917	33.88538	195
AL	Hudson-Kirby Stadium	-87.18472	33.76639	179
AL	Hueys Marina	-87.22473	34.00094	203
AL	Hueytown	-86.99666	33.45122	140
AL	Hueytown Baptist Church	-86.98206	33.43384	137
AL	Hueytown Church	-87.02749	33.42650	139
AL	Hueytown Church of God	-87.00916	33.45289	140
AL	Hueytown City Hall	-86.99444	33.42678	137
AL	Hueytown Crest	-86.99694	33.46122	141
AL	Hueytown Elementary School	-86.99110	33.44233	139
AL	Hueytown Fire and Rescue Station 1	-86.99386	33.44284	139
AL	Hueytown Fire and Rescue Station 2	-87.01278	33.43025	138
AL	Hueytown Fire and Rescue Station 3	-87.05044	33.42235	139
AL	Hueytown High School	-86.99194	33.44650	139
AL	Hueytown Public Library	-86.99444	33.42650	137
AL	Huff Cemetery	-87.73392	34.65870	290
AL	Huff Cemetery	-87.61808	34.83564	303
AL	Huff Cemetery	-87.56947	34.87009	304
AL	Huff Dam	-86.28665	33.97176	179
AL	Huff Gap	-85.84302	34.17315	205
AL	Huffman	-86.69304	33.59927	144
AL	Huffman Bar	-86.56664	32.37347	29
AL	Huffman Branch	-88.18726	34.98092	342
AL	Huffman Gardens	-86.67499	33.60399	144
AL	Huffman High School	-86.68388	33.61121	145
AL	Huffman Hollow	-88.17615	34.98925	342
AL	Huffman Middle School	-86.69416	33.59510	143
AL	Huffman Mountain	-86.79889	33.98149	187
AL	Huffman Recreation Center	-86.70777	33.59038	143
AL	Huffman United Methodist Church	-86.69111	33.59694	143
AL	Huffmans Ford	-87.84752	33.14734	173
AL	Huffmans Pond	-86.45741	32.16820	28
AL	Huffstufer Mine	-86.69722	33.87232	173
AL	Huggins Cemetery	-87.94778	31.82349	170
AL	Huggins Creek	-87.84362	32.36292	149
AL	Hugh Owen Memorial Stadium	-85.88160	31.04240	150
AL	Hugh Pate Dam	-88.10669	33.18679	196
AL	Hugh R Thomas Bridge	-87.57390	33.21429	156
AL	Hugh Siding (historical)	-86.78416	33.60066	146
AL	Hugh Street School	-86.33219	32.36097	7
AL	Hughes	-87.09360	31.79738	100
AL	Hughes Avenue Baptist Church	-86.08525	34.02010	185
AL	Hughes Branch	-86.50719	31.56405	91
AL	Hughes Branch	-87.89447	33.96455	235
AL	Hughes Branch	-87.93698	34.46204	281
AL	Hughes Cemetery	-86.73138	33.75288	161
AL	Hughes Cemetery	-86.00275	34.00565	184
AL	Hughes Cemetery	-88.05224	33.02596	184
AL	Hughes Cemetery	-87.21002	34.32066	235
AL	Hughes Chapel	-86.70805	33.75260	160
AL	Hughes Church	-88.12086	33.66789	227
AL	Hughes Creek	-88.11002	33.03846	189
AL	Hughes Creek	-86.61888	34.41065	230
AL	Hughes Ferry (historical)	-86.23914	32.48875	15
AL	Hughes Lake	-85.76394	31.13226	144
AL	Hughes Mill	-85.78386	34.41898	233
AL	Hughes Mill (historical)	-87.71501	33.31928	173
AL	Hughes Mill Creek	-87.72473	33.32095	174
AL	Hughes Mobile Home Park	-87.75409	30.61417	240
AL	Hughes Park	-86.74305	34.70370	264
AL	Hughes Spring	-86.59380	34.41719	231
AL	Hughes Spring Branch	-86.00136	34.00204	184
AL	Hughey Cemetery	-86.98751	34.86981	287
AL	Hughs Road Church	-86.74083	34.72092	266
AL	Hugins Store (historical)	-86.36440	31.58294	86
AL	Hugley	-85.24605	32.43209	96
AL	Hugleys Pond	-85.18107	32.40839	101
AL	Hugo	-87.68890	32.26681	135
AL	Huguley	-85.22966	32.83457	110
AL	Huguley Cemetery	-85.21439	32.82374	111
AL	Huguley Congregational Christian Church	-85.23244	32.84457	110
AL	Huguley Elementary School	-85.22855	32.83457	110
AL	Huguley Fire Department	-85.24530	32.84806	110
AL	Huguley Methodist Church	-85.22716	32.83374	110
AL	Hulaco	-86.59860	34.31232	219
AL	Hulaco School (historical)	-86.59944	34.29732	218
AL	Huldah (historical)	-86.46860	34.07510	192
AL	Hull	-87.57167	33.05373	145
AL	Hull	-87.05889	33.77427	174
AL	Hull Consolidated School (historical)	-87.56778	33.05762	145
AL	Hull Lake	-87.61372	33.04433	148
AL	Hull Mine	-87.09306	33.76538	175
AL	Hullett Branch	-87.29501	34.11316	217
AL	Hulletts Chapel	-86.51804	33.76621	158
AL	Hulls Cemetery	-87.59167	33.04401	146
AL	Hulls Landing	-87.60917	33.05929	149
AL	Hulsey Branch	-87.90059	34.35871	270
AL	Hulsey Center	-86.80805	33.49816	137
AL	Humana Hospital Russellville	-87.71864	34.50759	274
AL	Humber Bend	-87.26917	33.52789	161
AL	Humble Zion Church	-85.35216	32.09154	90
AL	Humoro	-86.76777	33.61760	148
AL	Humphrey Branch	-87.63585	33.93788	217
AL	Humphrey Cemetery	-86.57610	34.80065	273
AL	Humphrey Cemetery	-86.52388	34.86981	280
AL	Humpton	-86.30498	34.54759	243
AL	Humpton Cemetery	-86.30332	34.54759	243
AL	Hunawell Creek	-87.84805	30.70575	237
AL	Hundley Cemetery	-86.84528	34.66870	262
AL	Hundred Oaks	-86.50693	33.59455	139
AL	Hunley Cemetery	-86.83195	34.59426	254
AL	Hunnicut Creek	-88.32336	32.02709	198
AL	Hunt AHP Airport	-85.58327	31.38350	125
AL	Hunt Cemetery	-86.50055	34.84842	277
AL	Hunt Chapel	-85.81441	34.22426	211
AL	Hunt Memorial Congregational Church	-85.94052	32.94207	71
AL	Hunt Mountain	-86.55610	33.91982	176
AL	Hunt Store (historical)	-86.10637	34.63536	253
AL	Hunter	-86.39553	32.39569	14
AL	Hunter (historical)	-87.61253	34.64120	283
AL	Hunter Branch	-85.59940	33.14901	107
AL	Hunter Branch	-85.59273	33.40789	132
AL	Hunter Branch	-85.13826	31.25045	162
AL	Hunter Branch	-86.65555	34.22621	211
AL	Hunter Camp	-87.43446	34.27927	240
AL	Hunter Camp	-87.34613	34.33732	242
AL	Hunter Chapel	-87.60251	32.51597	128
AL	Hunter Chapel Cemetery	-87.60306	32.51569	128
AL	Hunter Creek	-85.53301	32.93012	93
AL	Hunter Creek	-85.59329	33.26706	119
AL	Hunter Creek	-87.01886	31.43683	125
AL	Hunter Hollow	-86.20471	34.75981	267
AL	Hunter Point	-85.82775	34.75675	269
AL	Hunter Post Office (historical)	-87.61253	34.64120	283
AL	Hunter School	-86.95499	32.17903	69
AL	Hunter Station Baptist Church	-86.39775	32.39930	14
AL	Hunter Station Church of Christ	-86.39942	32.40014	14
AL	Hunter Street Baptist Church	-86.86388	33.50733	140
AL	Hunter Street Baptist Church	-85.86552	33.64483	147
AL	Hunters African Methodist Episcopal Zion Chapel	-87.56278	33.20456	154
AL	Hunters Cemetery	-85.16854	31.24212	161
AL	Hunters Chapel	-87.22778	33.79177	183
AL	Hunters Crossroads	-85.16854	31.24962	160
AL	Hunters Glen (historical)	-86.78471	33.29400	115
AL	Hunters Hill	-86.68054	33.52177	135
AL	Hunters Point	-86.23663	32.30153	6
AL	Hunters School (historical)	-87.22806	33.79289	183
AL	Hunters Slough	-87.94361	31.37433	193
AL	Hunting Downs	-86.34664	32.24042	15
AL	Hunting Ridge	-86.47720	32.45486	23
AL	Hunting Ridge	-86.28192	33.54594	132
AL	Hunting Ridge Church of God	-86.46886	32.45402	23
AL	Huntingdon College	-86.28525	32.35097	3
AL	Huntington Park	-86.78527	33.38539	124
AL	Huntington Park	-86.83971	33.43261	131
AL	Huntington Place	-87.59612	33.30178	163
AL	Huntington Place Elementary School	-87.59917	33.30151	164
AL	Huntland	-87.45473	33.13873	142
AL	Huntleigh Woods	-88.19584	30.68352	261
AL	Huntley Branch	-86.06386	33.34622	111
AL	Hunts Cemetery	-85.81358	34.22482	211
AL	Hunts Mill (historical)	-86.60081	32.90207	68
AL	Huntsville	-86.58610	34.73037	265
AL	Huntsville AL Days Inn & Suites	-86.68210	34.74460	268
AL	Huntsville Academy (historical)	-86.58333	34.72981	265
AL	Huntsville Adult Education Center	-86.60222	34.70315	262
AL	Huntsville Airport North	-86.55610	34.85703	279
AL	Huntsville Baptist Temple	-86.56444	34.71787	263
AL	Huntsville Bible Church	-86.57249	34.75231	267
AL	Huntsville Christian Church	-86.62694	34.74926	268
AL	Huntsville Church of God	-86.59860	34.71926	264
AL	Huntsville City Infirmaries (historical)	-86.58166	34.72259	264
AL	Huntsville Collegiate Institute (historical)	-86.57555	34.73454	265
AL	Huntsville Equitation School	-86.44082	34.75370	266
AL	Huntsville Female Academy (historical)	-86.58221	34.73342	265
AL	Huntsville Field	-86.58888	34.68842	260
AL	Huntsville Fire and Rescue Station 1	-86.58673	34.72821	265
AL	Huntsville Fire and Rescue Station 10	-86.61611	34.78844	272
AL	Huntsville Fire and Rescue Station 11	-86.73457	34.64744	258
AL	Huntsville Fire and Rescue Station 12	-86.65699	34.72799	266
AL	Huntsville Fire and Rescue Station 14	-86.54872	34.62504	253
AL	Huntsville Fire and Rescue Station 15	-86.63452	34.75906	269
AL	Huntsville Fire and Rescue Station 16	-86.71484	34.75769	270
AL	Huntsville Fire and Rescue Station 17	-86.47588	34.66077	256
AL	Huntsville Fire and Rescue Station 2	-86.57767	34.74987	267
AL	Huntsville Fire and Rescue Station 3	-86.62653	34.71378	264
AL	Huntsville Fire and Rescue Station 4	-86.53162	34.73741	265
AL	Huntsville Fire and Rescue Station 5	-86.60552	34.73734	266
AL	Huntsville Fire and Rescue Station 6	-86.58420	34.69094	261
AL	Huntsville Fire and Rescue Station 7	-86.56662	34.62047	253
AL	Huntsville Fire and Rescue Station 8	-86.58237	34.77848	270
AL	Huntsville Fire and Rescue Station 9	-86.55548	34.67191	258
AL	Huntsville Free Methodist Church	-86.64166	34.77120	270
AL	Huntsville Freewill Baptist Church	-86.57499	34.74648	267
AL	Huntsville Golf and Country Club	-86.61222	34.74870	267
AL	Huntsville High School	-86.58360	34.71537	263
AL	Huntsville Hills	-86.53610	34.66676	257
AL	Huntsville Hospital	-86.58079	34.72088	264
AL	Huntsville Hospital for Women and Children	-86.57457	34.72022	264
AL	Huntsville Industrial Center	-86.58194	34.74842	267
AL	Huntsville International Airport-Carl T Jones Field	-86.77476	34.64933	259
AL	Huntsville Junior High School	-86.57777	34.73426	265
AL	Huntsville Knights Inn	-86.63720	34.73510	266
AL	Huntsville Memory Gardens	-86.70277	34.75342	269
AL	Huntsville Mountain	-86.51693	34.67148	258
AL	Huntsville Municipal Golf Course	-86.58305	34.68342	260
AL	Huntsville Museum of Arts	-86.59055	34.72815	265
AL	Huntsville Park	-86.60888	34.70454	262
AL	Huntsville Park	-86.61888	34.70454	263
AL	Huntsville Park Baptist Church	-86.60999	34.70620	263
AL	Huntsville Post Office	-86.58721	34.73259	265
AL	Huntsville Running Park	-86.59110	34.68342	260
AL	Huntsville Sewage Treatment Plant	-86.59916	34.67037	259
AL	Huntsville Speedway	-86.53471	34.56815	247
AL	Huntsville Spring Branch	-86.69444	34.62342	255
AL	Hurd Hollow	-88.07726	34.79953	319
AL	Hurd Spring	-88.07768	34.79326	319
AL	Hurds Gap	-85.90886	33.74538	157
AL	Hurley	-85.62302	34.27509	221
AL	Hurn Spring	-87.26435	34.96739	304
AL	Hurn Spring Branch	-87.27030	34.96481	304
AL	Hurricane	-87.90194	30.84102	229
AL	Hurricane (historical)	-87.27085	34.88203	295
AL	Hurricane Baptist Church	-87.48750	33.22623	150
AL	Hurricane Baptist Church	-88.45142	31.87626	214
AL	Hurricane Bay Business Park	-88.12046	30.55552	267
AL	Hurricane Bayou	-87.91166	30.83324	231
AL	Hurricane Bluff	-87.24166	32.08292	98
AL	Hurricane Branch	-86.32858	32.60430	28
AL	Hurricane Branch	-86.74860	32.70180	60
AL	Hurricane Branch	-85.87828	31.91571	61
AL	Hurricane Branch	-85.66274	33.32650	121
AL	Hurricane Branch	-86.81749	33.37983	125
AL	Hurricane Branch	-87.51693	31.31211	166
AL	Hurricane Branch	-88.10917	31.21045	217
AL	Hurricane Branch	-86.17665	34.40370	227
AL	Hurricane Branch	-87.23807	34.28343	232
AL	Hurricane Branch	-88.40279	31.19768	240
AL	Hurricane Branch	-88.05920	34.32677	275
AL	Hurricane Branch	-87.26418	34.88147	295
AL	Hurricane Cemetery	-85.65466	31.07851	153
AL	Hurricane Chapel	-86.40138	34.79953	271
AL	Hurricane Church	-86.39665	34.75648	266
AL	Hurricane Creek	-86.91360	32.20125	64
AL	Hurricane Creek	-85.63494	31.82127	84
AL	Hurricane Creek	-87.24694	32.34514	93
AL	Hurricane Creek	-86.04106	31.49155	98
AL	Hurricane Creek	-85.58384	33.16762	110
AL	Hurricane Creek	-86.93805	33.24900	118
AL	Hurricane Creek	-86.46193	33.45900	124
AL	Hurricane Creek	-85.61771	31.34378	128
AL	Hurricane Creek	-85.72660	31.17906	140
AL	Hurricane Creek	-86.68996	31.06379	149
AL	Hurricane Creek	-87.46084	33.25234	150
AL	Hurricane Creek	-87.37861	33.36567	153
AL	Hurricane Creek	-85.15021	31.31684	156
AL	Hurricane Creek	-87.24722	33.51233	158
AL	Hurricane Creek	-88.08335	32.08959	175
AL	Hurricane Creek	-86.35887	33.95176	177
AL	Hurricane Creek	-87.59610	31.02824	194
AL	Hurricane Creek	-85.58607	34.00982	194
AL	Hurricane Creek	-88.31003	32.20292	194
AL	Hurricane Creek	-87.41890	33.81844	195
AL	Hurricane Creek	-86.59916	34.13287	200
AL	Hurricane Creek	-88.40725	32.07904	205
AL	Hurricane Creek	-86.90028	34.28232	222
AL	Hurricane Creek	-87.36668	34.25288	234
AL	Hurricane Creek	-85.60107	34.42092	237
AL	Hurricane Creek	-86.42665	34.68926	259
AL	Hurricane Creek	-88.14504	34.17594	268
AL	Hurricane Creek	-86.17026	34.89814	282
AL	Hurricane Creek	-88.01337	34.47649	286
AL	Hurricane Creek	-87.43169	34.97147	310
AL	Hurricane Creek	-87.80836	34.90564	317
AL	Hurricane Creek Church	-88.13365	34.36093	283
AL	Hurricane Creek Pit Mine	-87.31528	33.22789	138
AL	Hurricane Creek Shooting Range	-87.33696	34.26038	234
AL	Hurricane Creek Watershed Lake	-86.35446	34.78627	270
AL	Hurricane Cumberland Presbyterian Church	-87.27169	34.88370	296
AL	Hurricane Grove Church	-86.40527	34.86120	278
AL	Hurricane Hills	-87.45139	33.20151	146
AL	Hurricane Hollow	-86.11665	34.92092	285
AL	Hurricane Island	-87.25221	32.09181	98
AL	Hurricane Methodist Church	-85.65549	31.07907	153
AL	Hurricane Mountain	-85.67635	33.87093	176
AL	Hurricane Ridge	-88.09945	31.23351	214
AL	Hurricane School	-87.87833	30.83658	228
AL	Hurricane School	-86.41277	34.82648	274
AL	Hurricane School (historical)	-87.32333	33.22706	139
AL	Hurricane School (historical)	-86.40665	34.80342	272
AL	Hurricane Springs Primitive Baptist Church	-87.26613	34.92842	300
AL	Hurricane United Methodist Church	-85.48857	33.56566	152
AL	Hurst Hill	-86.48193	33.59094	138
AL	Hurst Mine	-85.87191	33.33067	114
AL	Hurt Cemetery	-85.98942	34.76619	268
AL	Hurtel Street Baptist Church	-88.07667	30.65686	256
AL	Hurts Chapel	-85.35772	32.21098	86
AL	Hurts Chapel Cemetery	-85.35799	31.21184	153
AL	Hurtsboro	-85.41633	32.24181	80
AL	Hurtsboro Cemetery	-85.41800	32.24431	80
AL	Hurtsboro Creek	-85.28855	32.16376	94
AL	Hurtsboro Deliverance Tabernacle	-85.41689	32.27570	80
AL	Hurtsboro Post Office	-85.41605	32.24515	80
AL	Hurtsboro Volunteer Fire Department	-85.41598	32.24203	80
AL	Huskeys Dam	-85.45661	32.37681	75
AL	Huskeys Pond	-85.45661	32.37681	75
AL	Husky Cemetery	-85.72386	34.41120	233
AL	Husky Mountain	-86.56721	34.51370	241
AL	Husky Top	-86.27665	34.96537	289
AL	Hussey Cemetery	-85.84467	31.85432	68
AL	Hustleville	-86.16748	34.31176	217
AL	Hustleville Church	-86.15303	34.30398	216
AL	Huston Dam	-85.63829	33.54178	144
AL	Hustons Crossroads (historical)	-86.16136	33.49344	126
AL	Hutchenson Cemetery	-88.25447	32.74874	192
AL	Hutchings Cemetery	-86.76861	34.84453	280
AL	Hutchinson Cemetery	-85.76468	33.01568	86
AL	Hutchinson Ford	-85.87774	33.03401	83
AL	Hutchinson Street Baptist Church	-86.29636	32.36931	4
AL	Hutchson and Russell Family Cemetery	-85.91466	31.45267	105
AL	Hutsell Track	-85.49583	32.59889	76
AL	Hutson Key Commercial Park	-88.13098	30.66320	259
AL	Hutto Pond	-85.31820	31.66241	118
AL	Hutton Cemetery	-88.12725	32.96040	188
AL	Hutton Creek	-85.56384	33.11568	106
AL	Hutton Plaza Shopping Center	-85.71299	31.33656	124
AL	Huttos Lake	-86.17831	33.49900	127
AL	Huttos Store (historical)	-85.40355	31.78544	103
AL	Huxford	-87.46193	31.22017	170
AL	Huxford Baptist Church	-87.48110	31.21823	171
AL	Huxford Church	-87.44165	31.22823	168
AL	Huxford Church Cemetery	-87.48137	31.21767	171
AL	Huxford Dam	-87.10664	31.13851	157
AL	Huxford High School	-87.46221	31.22462	170
AL	Huxford Lookout Tower	-87.46471	31.18323	173
AL	Huxford Oil Field	-87.43776	31.18906	171
AL	Huxford Post Office	-87.46165	31.20295	171
AL	Huxford Still (historical)	-87.14997	31.14740	159
AL	Huxford Volunteer Fire Department	-87.46214	31.22072	170
AL	Huyck Bridge	-88.23753	33.08068	202
AL	Hyatt	-86.34304	34.23426	208
AL	Hyatt Gap	-86.31581	33.92732	174
AL	Hybart	-87.38194	31.82654	121
AL	Hybart Cemetery	-87.38471	31.81349	122
AL	Hyche Mine	-87.21806	33.71539	175
AL	Hycutt	-87.99529	32.70680	168
AL	Hyde Cemetery	-87.68420	34.57065	279
AL	Hyde Lake	-87.68192	34.57156	279
AL	Hyde Lake Dam	-87.68170	34.57676	280
AL	Hyde Park	-86.87999	33.47788	137
AL	Hydro Vista Plantation (historical)	-88.06919	32.63958	173
AL	Hymen Cemetery	-86.52083	34.87814	281
AL	Hymer (historical)	-85.84470	34.82925	277
AL	Hyndes Branch	-88.37059	32.26153	199
AL	Hyram	-85.24800	32.35292	95
AL	Hyram Post Office	-85.24800	32.35292	95
AL	Hytop	-86.08804	34.91620	284
AL	Hytop Cemetery	-86.07859	34.89342	282
AL	Hytop Church	-86.08804	34.91481	284
AL	Hytop Volunteer Fire Department	-86.08323	34.92069	285
AL	I AMS Temple	-87.31056	33.91288	199
AL	I D McClurkin Number 1 Dam	-86.06996	32.07182	36
AL	I D McClurkin Number One Lake	-86.06996	32.07182	36
AL	I Martin Landing (historical)	-88.13390	31.89460	184
AL	INN SOUTH	-86.33690	32.32850	8
AL	Ice Berg Mine	-87.58558	34.08566	228
AL	Ice Branch	-87.17334	33.88372	190
AL	Ice Factory Branch	-85.85160	31.01185	154
AL	Icehouse Historic District	-87.03138	32.40986	73
AL	Ida (historical)	-86.45137	33.11817	86
AL	Ida Academy (historical)	-86.13970	33.48955	126
AL	Idaho (historical)	-85.93413	33.31733	111
AL	Idaho Mine	-85.89941	33.31622	112
AL	Idaho Volunteer Fire Department	-85.93087	33.31674	111
AL	Idalia Elementary School	-86.14081	33.50650	128
AL	Idella Post Office (historical)	-86.45137	33.11817	86
AL	Ider	-85.68080	34.71425	267
AL	Ider Church	-85.67969	34.68342	264
AL	Ider Church	-85.60608	34.74536	272
AL	Ider Fire Department	-85.67124	34.69235	265
AL	Ider Missionary Baptist Church	-85.67636	34.71369	267
AL	Ider Post Office	-85.66941	34.69508	265
AL	Ider School	-85.67553	34.71203	267
AL	Idle Hour Airport	-88.26167	30.57658	274
AL	Idle Hour Park	-85.01049	32.49959	118
AL	Idlewild Lake	-86.57337	32.46860	32
AL	Idlewood	-85.81383	31.33267	121
AL	Idlewood	-87.51445	33.18345	149
AL	Idlewood Lake Dam	-86.56164	32.46847	31
AL	Iduma Congregational Methodist Church	-85.54523	33.39789	133
AL	Ihagee Creek	-84.95937	32.21821	123
AL	Ijams Branch	-87.71253	34.89842	313
AL	Ikanatchaka (historical)	-86.72082	32.86540	71
AL	Ike Hollow	-85.96248	34.91592	285
AL	Ike Pond Slough	-86.66110	33.44650	127
AL	Ikes Knob	-87.70253	34.25871	250
AL	Ikner Bridge (historical)	-87.45832	31.60044	141
AL	Ilamo	-86.23887	33.58538	136
AL	Immanuel Baptist Church	-86.11803	33.46455	124
AL	Immanuel Baptist Church	-85.50632	31.08990	158
AL	Immanuel Baptist Church	-86.81722	34.26260	218
AL	Immanuel Church	-87.32610	31.81460	117
AL	Immanuel Episcopal Church	-87.77971	30.88796	218
AL	Imperial Forest	-86.82777	33.42872	130
AL	Ina Pullen Smallwood Memorial Library	-88.07753	30.76537	247
AL	Incline	-86.54027	34.52592	242
AL	Incline Landing (historical)	-86.56888	34.53120	243
AL	Independence	-86.70137	32.52319	46
AL	Independence Bridge	-87.10083	32.50069	81
AL	Independence Cemetery	-87.61694	31.94154	136
AL	Independence Church	-86.49332	33.70677	151
AL	Independence Church (historical)	-87.61611	31.91487	137
AL	Independence Volunteer Fire Department	-86.66269	32.52460	42
AL	Independent Baptist Church	-87.90946	32.07320	159
AL	Independent Church	-87.48666	31.77376	133
AL	Independent Church	-86.53305	34.31759	219
AL	Independent Church of Christ	-86.81528	34.78731	274
AL	Independent Community Church	-88.39141	31.59433	219
AL	Independent Methodist Church of Huffman	-86.69972	33.60111	144
AL	Independent Methodist Church of Tarrant	-86.77082	33.58010	144
AL	Index (historical)	-85.87747	34.63342	255
AL	India Lakes	-85.39300	32.66958	88
AL	Indian Bay	-88.11111	30.25993	292
AL	Indian Branch	-86.17522	31.12156	137
AL	Indian Branch	-87.89640	32.01015	159
AL	Indian Branch	-87.94752	32.95540	172
AL	Indian Branch	-85.42385	34.06315	205
AL	Indian Camp Creek	-85.81383	31.34350	120
AL	Indian Cave Hollow	-87.11862	34.00733	200
AL	Indian Commercial Park	-88.22480	30.70450	262
AL	Indian Creek	-85.94606	31.96654	52
AL	Indian Creek	-86.68332	32.67930	54
AL	Indian Creek	-86.50608	31.90293	56
AL	Indian Creek	-85.94273	31.87016	62
AL	Indian Creek	-86.07607	31.77655	67
AL	Indian Creek	-86.89387	31.99348	72
AL	Indian Creek	-86.38135	31.62016	83
AL	Indian Creek	-85.92245	31.64155	85
AL	Indian Creek	-85.34188	31.63072	118
AL	Indian Creek	-86.52498	33.39261	118
AL	Indian Creek	-86.35995	31.18184	131
AL	Indian Creek	-87.59361	31.97904	133
AL	Indian Creek	-87.48806	33.04123	138
AL	Indian Creek	-87.85723	31.89626	159
AL	Indian Creek	-87.99835	32.30375	164
AL	Indian Creek	-87.31584	33.62872	172
AL	Indian Creek	-87.29806	33.71094	179
AL	Indian Creek	-86.69611	34.17065	205
AL	Indian Creek	-87.48640	33.89455	205
AL	Indian Creek	-87.62526	30.84602	212
AL	Indian Creek	-87.44946	33.99594	213
AL	Indian Creek	-87.86085	33.76483	216
AL	Indian Creek	-85.79636	34.27537	217
AL	Indian Creek	-87.15029	34.22066	223
AL	Indian Creek	-86.89667	34.31704	225
AL	Indian Creek	-87.19252	34.36621	239
AL	Indian Creek	-88.17726	33.89761	248
AL	Indian Creek	-86.75000	34.55843	248
AL	Indian Creek (historical)	-85.64689	32.01265	69
AL	Indian Creek Baptist Church	-85.65050	31.98571	71
AL	Indian Creek Bar	-86.72416	34.58065	250
AL	Indian Creek Cemetery	-86.68583	34.77120	271
AL	Indian Creek Church	-86.41802	31.61710	83
AL	Indian Creek Elementary School (historical)	-85.65050	32.00543	69
AL	Indian Creek Junior High School	-86.66888	34.77953	271
AL	Indian Creek Post Office (historical)	-85.64689	32.01265	69
AL	Indian Creek Primitive Baptist Church	-86.68805	34.76509	270
AL	Indian Creek School (historical)	-86.41857	31.61933	83
AL	Indian Creek Youth Camp	-87.32000	33.63067	173
AL	Indian Estates Lake	-86.80994	33.34269	121
AL	Indian Ford Volunteer Fire Department	-86.90535	33.30832	122
AL	Indian Fork Branch	-88.08833	30.88130	239
AL	Indian Gap Lake	-87.02395	33.28251	125
AL	Indian Gap Lake Dam	-87.02166	33.28345	125
AL	Indian Grave Church	-86.65137	32.68263	52
AL	Indian Grave Creek	-88.10556	31.06657	226
AL	Indian Grave Pond	-86.17979	34.82689	274
AL	Indian Head Post Office (historical)	-85.93744	31.53155	96
AL	Indian Hill	-86.35276	33.29761	105
AL	Indian Hill	-85.50663	34.10871	207
AL	Indian Hill	-87.49447	34.60287	274
AL	Indian Hill	-88.01809	34.56259	294
AL	Indian Hill Cemetery	-86.51720	32.46069	27
AL	Indian Hill Church	-86.54747	31.91265	56
AL	Indian Hill Farm (historical)	-86.02080	33.59260	139
AL	Indian Hills	-85.94496	32.97596	75
AL	Indian Hills	-85.42439	32.61041	83
AL	Indian Hills	-86.79527	33.33539	120
AL	Indian Hills	-87.54334	33.23012	155
AL	Indian Hills	-88.19723	30.79185	253
AL	Indian Hills	-86.71111	34.73065	267
AL	Indian Hills Country Club	-86.62165	33.32789	113
AL	Indian Hills Country Club	-87.54251	33.23317	155
AL	Indian Hills Golf Club	-86.93251	34.49176	245
AL	Indian Hills Lake	-87.54770	33.22924	155
AL	Indian Hills Lake Dam	-87.54667	33.22845	155
AL	Indian Lake	-86.24746	31.86460	55
AL	Indian Lake	-87.55336	33.24479	156
AL	Indian Lake	-87.55334	33.24678	156
AL	Indian Lake Baptist Church	-87.55112	33.24123	156
AL	Indian Lake Estates	-86.80443	33.33956	120
AL	Indian Lakes	-85.82272	31.33156	121
AL	Indian Mine	-85.44357	34.04593	202
AL	Indian Mound Park	-88.10694	30.25659	292
AL	Indian Mounds Baptist Chapel	-87.61890	33.00235	146
AL	Indian Mountain	-85.45607	34.02260	199
AL	Indian Oaks Christian Church	-85.85663	33.71732	155
AL	Indian Oaks Country Club	-85.86941	33.72788	156
AL	Indian Pines Country Club	-85.44050	32.62347	82
AL	Indian Point	-87.10667	34.01621	200
AL	Indian Point	-85.94803	34.84647	278
AL	Indian Queen Bar	-88.02085	32.43847	166
AL	Indian Ridge Cemetery	-87.66305	31.66182	154
AL	Indian Ridge Church	-87.66333	31.66210	154
AL	Indian Ridge Church (historical)	-87.66805	31.63266	156
AL	Indian Rivers Community Mental Health Center	-87.56167	33.21012	155
AL	Indian Shoals	-86.46887	33.21400	97
AL	Indian Spring	-85.86552	33.82316	167
AL	Indian Spring	-87.59308	34.82564	301
AL	Indian Spring Lake	-86.77365	33.33854	119
AL	Indian Spring School	-86.77165	33.34122	119
AL	Indian Springs	-85.81910	31.32962	121
AL	Indian Springs	-88.10085	32.25236	174
AL	Indian Springs	-88.19167	30.78047	253
AL	Indian Springs	-87.60197	34.82620	301
AL	Indian Springs Baptist Church	-87.11776	31.79182	103
AL	Indian Springs Baptist Church	-88.18834	30.77658	254
AL	Indian Springs Cemetery	-88.18889	30.77852	253
AL	Indian Springs Christian School	-88.18806	30.77630	254
AL	Indian Springs Church	-88.17473	30.77463	253
AL	Indian Springs Elementary School	-88.15834	30.76185	253
AL	Indian Springs Post Office (historical)	-86.54914	32.46180	30
AL	Indian Springs Ranch	-86.76388	33.34594	119
AL	Indian Springs School (historical)	-87.12721	31.77793	104
AL	Indian Springs Shopping Center	-86.77304	33.34344	120
AL	Indian Springs Village	-86.75443	33.35539	120
AL	Indian Tomb Hollow	-87.22863	34.38093	242
AL	Indian Trace	-86.92695	34.77231	275
AL	Indian Valley	-86.75499	33.37928	123
AL	Indian Valley Camp	-86.74055	33.65982	151
AL	Indian Valley Camp Lake	-86.74190	33.65993	151
AL	Indian Valley Camp Lake Dam	-86.74166	33.66177	152
AL	Indian Valley Elementary School	-86.22970	33.19262	93
AL	Indian Valley Lake	-86.77332	33.36844	122
AL	Indian Valley Lake	-86.76445	33.37232	122
AL	Indiancamp Creek	-87.61142	34.91564	310
AL	Indigo	-85.83272	31.36128	118
AL	Indigo Creek	-85.93855	31.44767	105
AL	Indigo Pond	-85.18320	31.00680	181
AL	Indigo Ponds	-86.59074	31.19447	133
AL	Indio (historical)	-86.75971	33.74066	160
AL	Indio Mine	-86.74722	33.82510	169
AL	Industrial City	-86.98194	33.44400	138
AL	Industrial Park South	-88.12986	30.63439	261
AL	Industrial School	-86.89971	32.48902	62
AL	Industry	-86.61275	31.60433	90
AL	Industry Church	-86.60775	31.60349	90
AL	Industry School	-86.61164	31.60405	90
AL	Infant Baptist Church	-88.08780	33.26179	199
AL	Infant Hill Cemetery	-87.45167	33.71178	187
AL	Infirmary Long Term Acute Care Hospital	-88.17266	30.61940	265
AL	Infirmary West at Knollwood	-88.17116	30.61937	265
AL	Ingate	-87.21583	32.96846	113
AL	Ingham School (historical)	-87.93863	32.93929	170
AL	Ingham Valley	-86.58499	33.88565	172
AL	Ingle & Wakefield Cemetery	-87.50668	34.01899	218
AL	Ingle Terrace	-86.77582	33.56538	142
AL	Inglenook	-86.77860	33.56566	143
AL	Inglenook Cemetery	-86.77777	33.56316	142
AL	Inglenook Cumberland Presbyterian Church (historical)	-86.77721	33.55899	142
AL	Inglenook First United Methodist Church	-86.77638	33.56038	142
AL	Inglenook Park	-86.77777	33.55872	142
AL	Ingleside Village	-87.56528	33.19456	154
AL	Ingleton (historical)	-88.01393	34.78703	315
AL	Ingleton Post Office (historical)	-88.01393	34.78703	315
AL	Inglis Branch	-85.98387	34.80592	273
AL	Inglis Cemetery	-85.97942	34.82342	275
AL	Inglis Hollow	-85.99248	34.82008	274
AL	Inglis Point	-85.92081	34.81508	274
AL	Ingraham Hollow	-87.66003	34.36843	258
AL	Ingraham Post Office (historical)	-85.59579	33.28817	120
AL	Ingram	-87.54195	32.87013	133
AL	Ingram Arkadelphia Lake	-86.91211	33.92202	184
AL	Ingram Bayou	-87.55498	30.31131	258
AL	Ingram Branch	-85.69857	33.06068	94
AL	Ingram Camp	-86.50554	33.20762	97
AL	Ingram Cemetery	-87.37947	34.83564	294
AL	Ingram Creek	-85.77802	33.71316	157
AL	Ingram Ford	-87.26585	34.90536	298
AL	Ingram Hall	-85.48139	32.60528	78
AL	Ingram Hollow	-87.40836	34.85286	297
AL	Ingram Lake	-85.39327	31.44684	130
AL	Ingram Lake	-85.27489	31.21430	157
AL	Ingram Lake	-86.48332	33.90704	173
AL	Ingram Lake Dam	-85.27827	31.21518	157
AL	Ingram Mill (historical)	-85.69802	33.42372	129
AL	Ingram Mill (historical)	-87.26557	34.90620	298
AL	Ingram Park	-86.81332	33.51649	139
AL	Ingram Pond	-86.56274	31.47489	102
AL	Ingram Pond Number Two	-86.55830	31.47016	102
AL	Ingram State Technical Institute	-86.39220	32.58347	28
AL	Ingram Wells	-85.97941	33.77927	160
AL	Inland Junction	-86.56527	33.84927	168
AL	Inland Lake	-86.54999	33.83677	166
AL	Inland Lake	-86.50851	33.84061	166
AL	Inland Lake Dam	-86.54943	33.83677	166
AL	Inman Cemetery	-86.70972	34.66426	259
AL	Inman Creek	-87.25363	34.20010	224
AL	Inmanfield	-87.18835	34.24510	227
AL	Inmanfield Church Cemetery	-87.19029	34.24472	227
AL	Inner City Church of Christ	-88.05762	30.68463	252
AL	Innsbrooke	-86.66166	33.70427	154
AL	Ino	-86.09467	31.27128	121
AL	Ino Baptist Church	-86.09300	31.27323	121
AL	Ino Cemetery	-86.09300	31.27295	121
AL	Ino Church	-86.07633	31.26684	122
AL	Ino Volunteer Fire Department	-86.08456	31.28418	120
AL	Institute Creek	-87.03721	32.00542	83
AL	Interchange 1	-86.30414	32.36792	5
AL	Interchange 1	-87.55695	33.18012	152
AL	Interchange 1	-88.39198	32.45319	201
AL	Interchange 1	-88.12250	30.65325	259
AL	Interchange 10	-88.09389	30.76713	248
AL	Interchange 100	-87.09583	33.27956	129
AL	Interchange 104	-87.04916	33.32289	130
AL	Interchange 106	-87.02666	33.34317	131
AL	Interchange 11	-86.13857	32.36819	11
AL	Interchange 112	-86.96999	33.41094	135
AL	Interchange 113	-86.95555	33.42650	135
AL	Interchange 115	-86.94722	33.45983	138
AL	Interchange 118	-86.91833	33.48455	139
AL	Interchange 119A	-86.90999	33.49650	140
AL	Interchange 119B	-86.90221	33.49788	140
AL	Interchange 120	-86.88610	33.50650	140
AL	Interchange 121	-86.87721	33.50788	140
AL	Interchange 123	-86.84944	33.52094	140
AL	Interchange 124	-86.82638	33.52149	140
AL	Interchange 125A	-86.81527	33.52038	139
AL	Interchange 125B	-86.80916	33.52344	139
AL	Interchange 126A	-86.80443	33.52788	140
AL	Interchange 126B	-86.79860	33.53316	140
AL	Interchange 128	-86.78027	33.54788	141
AL	Interchange 129	-86.75916	33.54455	140
AL	Interchange 13	-88.10445	30.80185	246
AL	Interchange 13	-88.20222	30.55936	272
AL	Interchange 130	-86.74916	33.54733	140
AL	Interchange 130	-86.74443	33.54622	140
AL	Interchange 131	-86.73193	33.56316	141
AL	Interchange 132	-86.72082	33.53427	138
AL	Interchange 132	-86.72499	33.56649	141
AL	Interchange 133	-86.69860	33.53344	137
AL	Interchange 133	-86.70638	33.58205	142
AL	Interchange 134	-86.69721	33.58594	142
AL	Interchange 135	-86.66110	33.54455	137
AL	Interchange 136	-86.64026	33.54594	137
AL	Interchange 137	-86.65415	33.59871	143
AL	Interchange 140	-86.59304	33.54483	135
AL	Interchange 141	-86.61832	33.63955	146
AL	Interchange 142	-86.52942	31.98515	49
AL	Interchange 144	-86.52165	33.56594	136
AL	Interchange 147	-86.47609	33.57816	137
AL	Interchange 148	-86.52693	33.69593	151
AL	Interchange 15	-88.08917	30.82991	243
AL	Interchange 15	-88.17056	30.58103	268
AL	Interchange 151	-86.46136	32.10987	33
AL	Interchange 152	-86.39581	33.59594	138
AL	Interchange 153	-86.36804	33.59483	138
AL	Interchange 154	-86.46526	33.76871	158
AL	Interchange 156	-86.32053	33.60094	138
AL	Interchange 156	-86.42721	33.77704	158
AL	Interchange 158	-86.41775	32.19542	23
AL	Interchange 158	-86.28164	33.60677	139
AL	Interchange 16	-86.05274	32.36903	19
AL	Interchange 162	-86.21275	33.59871	138
AL	Interchange 164	-86.35469	32.26681	14
AL	Interchange 165	-86.16164	33.59149	137
AL	Interchange 166	-86.28692	33.86260	167
AL	Interchange 168	-86.33497	32.32708	8
AL	Interchange 168	-86.12414	33.59121	137
AL	Interchange 169	-86.32497	32.34458	6
AL	Interchange 17	-88.20836	32.62569	186
AL	Interchange 17	-88.15417	30.59519	266
AL	Interchange 170	-86.32108	32.35153	6
AL	Interchange 171	-86.32219	32.36708	6
AL	Interchange 172	-86.32164	32.37569	6
AL	Interchange 173	-86.32358	32.38903	7
AL	Interchange 173	-86.02358	33.58149	138
AL	Interchange 174	-86.19387	33.93343	175
AL	Interchange 176	-86.35636	32.41680	11
AL	Interchange 179	-86.38803	32.46014	17
AL	Interchange 179	-85.92552	33.58427	140
AL	Interchange 181	-86.40914	32.48847	20
AL	Interchange 181	-86.08803	33.99593	182
AL	Interchange 183	-86.07470	34.01871	185
AL	Interchange 186	-86.45775	32.54958	28
AL	Interchange 188	-86.02608	34.07343	192
AL	Interchange 19	-88.04444	30.87741	236
AL	Interchange 199	-85.59579	33.62205	153
AL	Interchange 2	-86.28469	32.36542	3
AL	Interchange 2	-87.56667	33.19984	154
AL	Interchange 20	-88.11778	30.62852	261
AL	Interchange 200	-86.54303	32.73680	50
AL	Interchange 205	-86.58026	32.80179	58
AL	Interchange 205	-85.50301	33.64538	159
AL	Interchange 205	-85.87914	34.27509	216
AL	Interchange 208	-86.59526	32.84318	63
AL	Interchange 210	-85.41356	33.65372	164
AL	Interchange 212	-86.62415	32.88790	68
AL	Interchange 218	-85.74913	34.43731	236
AL	Interchange 219	-86.68860	32.98012	80
AL	Interchange 22	-88.08889	30.64019	258
AL	Interchange 222	-85.71247	34.47786	241
AL	Interchange 228	-86.73887	33.10290	94
AL	Interchange 23	-88.14252	32.70097	181
AL	Interchange 23	-88.07500	30.64964	256
AL	Interchange 231	-86.74971	33.14234	99
AL	Interchange 231	-85.64108	34.59425	255
AL	Interchange 234	-86.77776	33.17345	103
AL	Interchange 238	-86.80777	33.23095	110
AL	Interchange 239	-85.56913	34.69647	267
AL	Interchange 24	-88.05805	30.66075	254
AL	Interchange 242	-86.80082	33.28067	114
AL	Interchange 246	-86.78027	33.33678	119
AL	Interchange 247	-86.77999	33.35400	121
AL	Interchange 250	-86.78471	33.39316	125
AL	Interchange 252	-86.80610	33.41205	128
AL	Interchange 254	-86.82360	33.43150	130
AL	Interchange 256	-86.82443	33.46372	134
AL	Interchange 258	-86.82638	33.48344	136
AL	Interchange 259A	-86.81388	33.49927	137
AL	Interchange 259B	-86.81555	33.50344	137
AL	Interchange 25A	-88.04667	30.67102	253
AL	Interchange 25B	-88.04444	30.67436	252
AL	Interchange 26	-88.04222	30.68519	251
AL	Interchange 260	-86.82138	33.51177	138
AL	Interchange 261	-86.82666	33.52149	140
AL	Interchange 262A	-86.82416	33.53261	141
AL	Interchange 262B	-86.82555	33.54122	142
AL	Interchange 263	-86.82999	33.55149	143
AL	Interchange 266	-86.80749	33.58622	146
AL	Interchange 267	-86.80971	33.60788	148
AL	Interchange 27	-88.02639	30.69186	250
AL	Interchange 271	-86.82916	33.65010	153
AL	Interchange 272	-86.82999	33.67233	155
AL	Interchange 275	-86.82833	33.71955	160
AL	Interchange 280	-86.82416	33.78816	167
AL	Interchange 281	-86.82472	33.80038	169
AL	Interchange 282	-86.82500	33.81121	170
AL	Interchange 292	-86.87028	33.94816	185
AL	Interchange 299	-86.86639	34.05454	197
AL	Interchange 3	-86.27136	32.36597	2
AL	Interchange 3	-88.12722	30.67630	257
AL	Interchange 30	-87.98722	30.67797	248
AL	Interchange 304	-86.86611	34.11621	203
AL	Interchange 308	-86.87528	34.17038	209
AL	Interchange 31	-87.85777	30.94935	218
AL	Interchange 310	-86.87889	34.20760	213
AL	Interchange 318	-86.90112	34.31676	225
AL	Interchange 322	-86.89167	34.36815	231
AL	Interchange 328	-86.90139	34.44898	240
AL	Interchange 334	-86.90584	34.53343	249
AL	Interchange 34	-87.82249	30.95379	215
AL	Interchange 340	-86.90139	34.62787	259
AL	Interchange 35	-87.91194	30.65575	245
AL	Interchange 351	-86.93945	34.78287	276
AL	Interchange 354	-86.93834	34.83203	282
AL	Interchange 361	-86.90695	34.91981	291
AL	Interchange 365	-86.88362	34.97314	296
AL	Interchange 37	-87.75971	30.96435	210
AL	Interchange 38	-87.85194	30.66325	241
AL	Interchange 4	-86.24413	32.35931	1
AL	Interchange 4	-88.12639	30.68825	256
AL	Interchange 4	-88.33556	30.49603	286
AL	Interchange 44	-87.76110	30.65214	237
AL	Interchange 45	-87.65582	31.01935	199
AL	Interchange 51	-85.50606	32.55875	74
AL	Interchange 53	-87.61554	30.62880	231
AL	Interchange 57	-85.42856	32.60513	83
AL	Interchange 57	-87.47387	31.11073	180
AL	Interchange 5A	-88.12333	30.70352	255
AL	Interchange 5B	-88.12250	30.70769	255
AL	Interchange 6	-86.21386	32.36292	4
AL	Interchange 60	-85.37217	32.63180	89
AL	Interchange 62	-85.35300	32.64347	91
AL	Interchange 62	-87.67640	33.08929	156
AL	Interchange 64	-85.33161	32.67263	94
AL	Interchange 69	-87.31081	31.20351	162
AL	Interchange 70	-85.28105	32.74624	101
AL	Interchange 71	-87.55278	33.17012	151
AL	Interchange 73	-87.52501	33.17151	149
AL	Interchange 76	-87.47417	33.17401	146
AL	Interchange 77	-85.21328	32.82207	111
AL	Interchange 79	-85.18550	32.84791	114
AL	Interchange 79	-87.40639	33.17401	141
AL	Interchange 8	-88.29920	32.52236	193
AL	Interchange 8	-88.10778	30.74074	251
AL	Interchange 86	-87.30139	33.18845	134
AL	Interchange 9	-86.17108	32.36153	8
AL	Interchange 97	-87.13472	33.24956	129
AL	Intercourse	-88.24030	32.41625	187
AL	Intercourse School	-88.26531	32.42792	189
AL	Interior Low Plateau	-86.91667	34.83342	281
AL	International Bible College	-87.66753	34.85564	306
AL	International Paper Corporation Fire Department - Emergency Medical Services	-86.47231	32.41966	21
AL	International Plaza Shopping Center	-88.12443	30.66686	258
AL	International Seaman Center	-88.04497	30.67592	252
AL	International Speedway	-86.06608	33.56538	135
AL	Interstate 10 Industrial Parkway Industrial Park	-88.17521	30.56931	269
AL	Interstate 65 Government Boulevard Commerce Park	-88.12166	30.65506	259
AL	Interstate Industrial Park	-86.35691	32.26792	14
AL	Interstate Industrial Park	-87.45695	33.17484	144
AL	Interurban Heights	-86.91416	33.48150	139
AL	Inverness	-85.74606	32.01488	61
AL	Inverness	-86.71110	33.40705	124
AL	Inverness Baptist Church	-85.74662	32.01543	61
AL	Inverness Cemetery	-85.75412	32.02154	60
AL	Inverness Cliffs	-86.70332	33.40705	124
AL	Inverness Elementary School	-86.70276	33.40872	124
AL	Inverness Plaza Shopping Center	-86.69582	33.41955	125
AL	Inverness Point	-86.71999	33.41844	125
AL	Ioka Farms	-87.42083	32.61819	113
AL	Irby Cemetery	-87.30694	32.08487	103
AL	Ireland Cemetery	-87.70642	34.21871	247
AL	Ireland Methodist Memorial Church	-87.70614	34.21815	247
AL	Irene (historical)	-85.79580	33.93899	181
AL	Irene Hoffman Trailer Park	-88.18120	30.56608	270
AL	Irene Post Office (historical)	-85.79580	33.93899	181
AL	Irish Hill	-86.88888	33.54066	144
AL	Irishman Ditch	-87.07193	32.25764	77
AL	Irma (historical)	-85.93802	32.72346	51
AL	Iron Bridge	-87.90140	32.20070	156
AL	Iron Bridge School (historical)	-87.38891	34.54315	264
AL	Iron City	-85.66413	33.66788	156
AL	Iron City Baptist Church	-85.66718	33.66733	155
AL	Iron City Cemetery	-85.66691	33.67149	156
AL	Iron City Mountain	-85.67107	33.65288	154
AL	Iron City United Methodist Church	-85.66607	33.66816	156
AL	Iron Mountain	-85.81135	33.69510	154
AL	Iron Mountain	-86.42360	33.98065	181
AL	Iron Mountain Church (historical)	-87.00029	34.44037	241
AL	Iron Mountain School (historical)	-87.58140	33.87788	209
AL	Iron Ore Mountain	-87.37222	33.42372	158
AL	Ironaton	-85.97108	33.42678	122
AL	Ironaton Church of Christ	-85.96969	33.42622	122
AL	Ironaton Fire Department	-86.00085	33.43343	122
AL	Ironaton Methodist Church	-85.97052	33.42705	122
AL	Irondale	-86.70721	33.53816	138
AL	Irondale Branch	-85.72886	34.96369	293
AL	Irondale Bridge	-86.62887	33.48066	129
AL	Irondale City Hall	-86.70665	33.53816	138
AL	Irondale Elementary School	-86.69554	33.53288	137
AL	Irondale Fire Department Station 1	-86.69855	33.52928	136
AL	Irondale Fire Department Station 2	-86.66587	33.54056	137
AL	Irondale Fire Department Station 3	-86.64187	33.58024	140
AL	Irondale Junior High School	-86.70888	33.53483	137
AL	Irondale Municipal Park	-86.69554	33.52927	136
AL	Irondale Plaza Shopping Center	-86.68860	33.54455	138
AL	Irondale Presbyterian Church	-86.70638	33.53483	137
AL	Ironman Baptist Church	-87.00056	34.44065	241
AL	Ironston Gap	-85.93469	33.35956	115
AL	Ironville	-87.34278	32.80068	113
AL	Irvin Bar	-87.71444	31.38628	175
AL	Irving Lake	-87.93750	30.80352	235
AL	Irving Pond	-87.25764	34.47798	253
AL	Irvington	-86.92917	34.63981	261
AL	Irvington	-88.23389	30.50686	278
AL	Irvington Church	-88.23639	30.50242	279
AL	Irwin Shoals	-85.80552	32.96262	79
AL	Isaac Creek	-87.55083	31.62599	147
AL	Isabel Mountain	-87.10168	34.44148	244
AL	Isabella	-86.78665	32.82846	72
AL	Isabella Baptist Church	-86.78832	32.82513	72
AL	Isabella Cemetery	-86.78860	32.82485	72
AL	Isabella Church	-86.89137	32.32819	60
AL	Isabella High School	-86.78637	32.82902	72
AL	Isabella Volunteer Fire Department	-86.78713	32.82805	72
AL	Isabelle Creek	-86.92139	33.87344	179
AL	Isbell	-87.75392	34.45537	271
AL	Isbell Branch	-87.62364	34.64620	284
AL	Isbell Cemetery	-86.17998	34.68981	259
AL	Isbell Chapel Missionary Baptist Church	-87.68447	34.63565	285
AL	Isbell Field Airport	-85.71979	34.47232	240
AL	Isbell Spring	-86.11553	33.42205	119
AL	Isbell Spring	-86.18765	34.68843	259
AL	Iselet Creek	-88.38779	31.00463	252
AL	Ishams Creek	-86.81192	31.93376	70
AL	Ishkooda	-86.86138	33.45983	135
AL	Ishkooda Elementary School (historical)	-86.86332	33.45900	135
AL	Islamic Dawah Center	-88.08318	30.72422	251
AL	Islamic Society of Mobile	-88.17959	30.68883	260
AL	Island Bar	-85.68886	34.93980	291
AL	Island Branch	-87.35861	33.45067	159
AL	Island Branch	-87.95476	34.37760	274
AL	Island Branch	-88.38251	30.61297	280
AL	Island Creek	-85.18327	32.38209	101
AL	Island Creek Ferry (historical)	-85.71608	34.90119	287
AL	Island Ford	-86.27025	32.88679	59
AL	Island Ford	-87.02388	33.05734	106
AL	Island Ford	-85.59273	33.32595	124
AL	Island Ford	-86.95555	33.71455	164
AL	Island Ford	-87.30195	34.10611	217
AL	Island Ford Bridge	-85.59273	33.32623	124
AL	Island Heads Branch	-87.79777	30.96963	212
AL	Island Home (historical)	-85.90802	32.84957	64
AL	Island Landing	-87.86499	31.05240	210
AL	Island Park (historical)	-86.16525	33.40566	117
AL	Island Park Spring	-86.16525	33.40566	117
AL	Isle Dauphin Country Club	-88.10278	30.24465	293
AL	Isle aux Dames	-88.29556	30.37076	293
AL	Isle aux Herbes	-88.25667	30.34353	293
AL	Isney	-88.45558	31.78238	217
AL	Isney Baptist Church	-88.44947	31.78155	217
AL	Isom Branch	-87.75809	34.32093	259
AL	Isom Cemetery	-86.87695	34.79231	276
AL	Isom Chapel	-86.87639	34.79176	276
AL	Isom Creek	-87.65640	33.82566	209
AL	Israel Cemetery	-86.07329	31.84599	59
AL	Israelite Church	-87.35583	32.31320	103
AL	Italian Catholic Cemetery	-87.11333	33.11290	116
AL	Italian Town	-87.09999	33.11845	116
AL	Ivalee	-86.14525	34.03454	186
AL	Ivalee Baptist Church	-86.14386	34.03565	186
AL	Ivalee Cemetery	-86.14275	34.04815	188
AL	Ivalee Elementary School	-86.12525	34.03593	187
AL	Ivalee Fire Department	-86.12681	34.03660	187
AL	Ivanhoe	-86.77582	33.14817	100
AL	Ivanhoe	-86.89471	33.48316	138
AL	Ivey Bottom	-86.05220	34.76314	268
AL	Ivey Branch	-88.07671	34.42204	285
AL	Ivey Cemetery	-87.18000	32.69596	94
AL	Ivey Cemetery	-85.17605	32.09765	106
AL	Ivey Cemetery	-87.04387	31.47433	123
AL	Ivey Lookout Tower	-85.37133	32.53819	86
AL	Ivey Mine	-86.46192	32.89846	63
AL	Iveys Chapel	-87.17694	32.69846	94
AL	Iveys Chapel Cemetery	-87.17805	32.69930	94
AL	Ivie Bar	-88.28698	33.21623	213
AL	Ivies Landing (historical)	-88.29142	33.22957	214
AL	Ivory Cemetery	-85.72634	32.24376	52
AL	Ivory Mountain	-85.70052	33.52594	140
AL	Ivy (historical)	-88.29364	32.83263	198
AL	Ivy Bluff	-87.24724	34.84203	291
AL	Ivy Bluff	-87.34891	34.91453	301
AL	Ivy Bluff Mine	-87.17083	33.64316	166
AL	Ivy Branch	-86.66249	33.36817	118
AL	Ivy Branch	-87.78059	34.32982	261
AL	Ivy Chase	-86.82805	33.38678	126
AL	Ivy Church	-86.36052	31.69488	74
AL	Ivy Creek	-86.78359	32.39125	50
AL	Ivy Creek	-86.36524	31.70710	73
AL	Ivy Creek	-86.34385	31.66432	77
AL	Ivy Creek	-85.84108	34.46203	237
AL	Ivy Creek School	-86.36746	31.70293	73
AL	Ivy Creek United Methodist Church	-86.78221	32.45986	51
AL	Ivy Glenn	-86.76888	33.42205	127
AL	Ivy Green	-87.70661	34.73891	296
AL	Ivy Hollow	-86.80861	34.38593	231
AL	Ivy Hollow	-87.20613	34.59065	263
AL	Ivy Mine	-87.08750	33.75983	174
AL	Izzard Shoals	-87.71501	33.00401	154
AL	J A Bennett Cemetery	-87.29446	34.04177	210
AL	J A Hughes Lake Number 3 Dam	-85.72327	31.08684	150
AL	J A Hughes Number One Dam	-85.76160	31.12851	144
AL	J A Hughes Number Two Dam	-85.76493	31.13184	144
AL	J B Hendley Lake Dam	-86.61495	31.02351	152
AL	J B Malones Landing (historical)	-88.09084	31.72627	187
AL	J B Simmons Bridge	-86.06300	31.41350	106
AL	J B Thomas Dam	-87.47667	32.78846	124
AL	J B Thomas Lake	-87.47801	32.78928	124
AL	J B Wilson Landing (historical)	-88.05278	31.58294	190
AL	J D Phillips Lake	-87.78581	31.87990	154
AL	J D Phillips Lake Dam	-87.78500	31.88015	154
AL	J D Thompson High School	-86.12302	32.85540	57
AL	J D Young Field	-86.81055	33.49816	137
AL	J E Robinson Dam	-88.22667	30.49853	278
AL	J E Robinson Lake	-88.22688	30.49976	278
AL	J E Terry Elementary School	-86.92527	32.65346	71
AL	J F Shields High School	-87.19665	31.73293	112
AL	J Friday Number 1 Dam	-86.91832	32.43847	63
AL	J Friday Number 1 Lake	-86.91866	32.43873	63
AL	J Friday Number 2 Dam	-86.90165	32.43514	61
AL	J Friday Number 2 Lake	-86.90165	32.43514	61
AL	J H Hines Dam	-85.42662	32.87179	97
AL	J H Hines Lake	-85.42636	32.87228	97
AL	J H Oliver Lake	-86.87166	33.01845	93
AL	J H Oliver Lake Dam	-86.87166	33.01845	93
AL	J J Farms	-86.64389	34.96750	292
AL	J L Crenshaw Lake Number One	-86.47300	32.14241	31
AL	J L Crenshaw Number 1 Dam	-86.47497	32.14348	31
AL	J L Crenshaw Number 2 Dam	-86.55331	32.20514	33
AL	J L Morrison Dam Number 1	-87.57167	32.65013	128
AL	J L Morrison Dam Number 2	-87.55167	32.70513	128
AL	J L Morrison Lake Number One	-87.57167	32.65013	128
AL	J L Morrison Lake Number Two	-87.55117	32.70329	127
AL	J L Wagner Elementary School	-85.98053	34.00426	185
AL	J M Elliott Junior School	-86.04997	34.02288	186
AL	J M Gaston Number 1 Dam	-87.19999	32.42514	89
AL	J M Gaston Number 2 Dam	-87.21499	32.43180	90
AL	J M Gaston Number One Lake	-87.19999	32.42514	89
AL	J M Gaston Number Two Lake	-87.21382	32.43129	90
AL	J M Gentry Dam	-87.07666	32.51013	79
AL	J M Granger Dam	-86.06330	32.76346	49
AL	J M Roberts Pond	-86.55864	33.67283	149
AL	J M Roberts Pond Dam	-86.55665	33.67344	149
AL	J Martin Landing (historical)	-88.13196	31.90071	184
AL	J Oviatt Bowers Park	-87.51112	33.17790	149
AL	J P Bertolli Dam	-87.73332	30.64686	236
AL	J P Groce Dam	-85.49328	32.39181	72
AL	J P Mckee Dam	-87.98000	31.49183	189
AL	J Paul Jones Hospital	-87.29980	31.99816	106
AL	J R Gilbert Dam	-85.72997	34.65508	260
AL	J R Gilberts Lake	-85.72834	34.65445	260
AL	J R Paul Lake	-86.78944	32.13596	56
AL	J R Paul Lake Dam	-86.78998	32.13514	56
AL	J Rudolphs Mill (historical)	-86.55191	31.39267	110
AL	J S Dunlap Dam	-86.15830	32.90012	61
AL	J S Sommerville Dam	-88.15669	33.10346	196
AL	J S Sommerville Lake	-88.15689	33.10555	196
AL	J Smiths Landing (historical)	-86.80915	32.30708	52
AL	J T Conner Dam	-85.64662	32.37514	58
AL	J T Stewart Lake Dam	-86.58165	32.80846	59
AL	J W Mayhall Lake Dam	-87.52336	34.28010	244
AL	J W Thornton Landing (historical)	-88.14362	31.85988	186
AL	J and J Speedway	-88.32140	30.48575	286
AL	JAMESON INN ALBERTVILLE	-86.20350	34.27320	213
AL	JAMESON INN AUBURN	-85.44950	32.62770	82
AL	JAMESON INN BESSEMER	-87.00450	33.36610	132
AL	JAMESON INN DECATUR	-87.01990	34.57890	256
AL	JAMESON INN EUFAULA	-85.14750	31.87730	118
AL	JAMESON INN FLORENCE	-87.63010	34.83010	302
AL	JAMESON INN GREENVILLE AL	-86.64250	31.85290	67
AL	JAMESON INN JASPER	-87.28810	33.84850	191
AL	JAMESON INN OXFORD	-85.78990	33.61220	146
AL	JAMESON INN OZARK	-85.67020	31.46120	114
AL	JAMESON INN PRATTVILLE	-86.41790	32.45960	19
AL	JAMESON INN SCOTTSBORO	-86.01550	34.66160	257
AL	JAMESON INN SELMA	-87.02420	32.43370	73
AL	JAMESON INN TRUSSVILLE	-86.61460	33.64050	146
AL	JAMESON INN TUSCALOOSA	-87.55160	33.16670	151
AL	JE Drake School	-85.81664	34.87703	282
AL	JF Drake State Technical College	-86.57360	34.77148	269
AL	JW Powell School	-87.65975	34.82064	303
AL	Jachin	-88.16836	32.22987	181
AL	Jack	-86.00023	31.57405	90
AL	Jack Ausley Dam	-85.95994	31.09184	143
AL	Jack Ausley Lake	-85.95994	31.09184	143
AL	Jack Branch	-85.98941	32.99845	75
AL	Jack Branch	-85.44578	33.13595	115
AL	Jack Branch	-88.24919	32.25486	188
AL	Jack Branch	-87.07501	34.83898	286
AL	Jack Cemetery	-86.22693	34.92675	285
AL	Jack Church	-85.99689	31.57544	90
AL	Jack Church	-85.99467	31.56822	91
AL	Jack Creek	-86.45192	32.20098	25
AL	Jack Creek	-86.25775	32.94734	65
AL	Jack Creek	-85.36549	31.54934	123
AL	Jack Duke Lake	-87.53712	33.08501	145
AL	Jack Duke Lake Dam	-87.53834	33.08512	145
AL	Jack Edwards Airport	-87.67936	30.28758	266
AL	Jack Gap	-86.08415	34.94064	287
AL	Jack Hardenbergh Dam	-87.52834	32.60347	123
AL	Jack Hughston Memorial Hospital	-85.00882	32.50828	119
AL	Jack Lacey Number 1 Dam	-85.86996	32.37347	37
AL	Jack Lacey Number 2 Dam	-85.87829	32.37347	36
AL	Jack Lane (historical)	-86.10971	34.93425	286
AL	Jack Locke Bridge	-87.31308	34.56620	264
AL	Jack M Dabbs Area Vocational Center	-86.65221	33.52983	135
AL	Jack Mountain	-86.17692	33.28817	104
AL	Jack Point	-87.61253	34.60843	280
AL	Jack Post Office	-86.00050	31.57377	90
AL	Jack Rice Mine	-85.60940	33.38400	129
AL	Jack Springs	-87.55249	31.16129	181
AL	Jack Springs Cemetery	-87.54721	31.16490	180
AL	Jack Toms Shoals	-88.10669	32.75624	179
AL	Jack Ward Branch	-85.55493	31.16462	148
AL	Jack Wool Dam	-86.02329	32.10515	36
AL	Jackie Branch	-85.94386	34.50342	240
AL	Jackie Osment Dam	-85.27994	32.69847	99
AL	Jackie Watson Redstone Camp	-87.30389	33.48511	159
AL	Jacks Branch	-85.10271	32.39820	109
AL	Jacks Branch	-85.55996	33.29206	123
AL	Jacks Branch	-87.63667	32.59791	132
AL	Jacks Branch	-88.13778	31.30573	213
AL	Jacks Cemetery	-86.39999	34.89120	281
AL	Jacks Cemetery	-86.42249	34.89481	282
AL	Jacks Creek	-86.18303	32.94429	66
AL	Jacks Creek	-85.79025	34.40787	232
AL	Jacks Island (historical)	-87.39586	34.80703	292
AL	Jacks Shopping Center	-85.85552	33.71621	155
AL	Jacks Trailer Court	-87.70334	30.40407	256
AL	Jackson	-87.89444	31.50905	181
AL	Jackson Academy	-87.90806	31.53794	181
AL	Jackson Branch	-86.33608	32.45152	13
AL	Jackson Branch	-87.34139	33.41900	155
AL	Jackson Branch	-88.33473	30.85796	258
AL	Jackson Branch	-87.76281	34.36954	264
AL	Jackson Cemetery	-86.24746	32.13015	25
AL	Jackson Cemetery	-85.86106	32.14070	44
AL	Jackson Cemetery	-87.63531	34.75509	295
AL	Jackson Cemetery	-87.72253	34.84842	308
AL	Jackson Cemetery	-88.10448	34.79565	320
AL	Jackson Chapel	-87.77779	32.78763	151
AL	Jackson Chapel Cemetery	-87.77223	32.75735	149
AL	Jackson Chute (historical)	-87.34585	34.78314	287
AL	Jackson County	-85.99930	34.77941	270
AL	Jackson County Courthouse	-86.03415	34.67203	258
AL	Jackson County Farm (historical)	-86.07776	34.68009	258
AL	Jackson County Park	-86.01887	34.63731	254
AL	Jackson County Technical School	-85.96887	34.72231	264
AL	Jackson Cove	-86.64611	34.41343	231
AL	Jackson Creek	-86.10996	31.96348	46
AL	Jackson Creek	-85.96190	31.93154	55
AL	Jackson Creek	-85.49633	31.75378	98
AL	Jackson Creek	-85.72996	33.61316	148
AL	Jackson Creek	-85.71802	33.63011	150
AL	Jackson Creek	-85.12382	31.18990	168
AL	Jackson Creek	-88.00695	31.55016	188
AL	Jackson Creek	-87.93781	34.64426	298
AL	Jackson Drive Church of Christ	-86.98751	34.81675	281
AL	Jackson Ferry (historical)	-87.90972	31.49405	183
AL	Jackson Ferry (historical)	-88.29253	33.19596	212
AL	Jackson Field Cemetery	-85.82496	32.98540	81
AL	Jackson Fire Department Station 2	-87.89280	31.51063	181
AL	Jackson Fire Department Station 4	-87.87955	31.55006	178
AL	Jackson Ford	-87.73420	34.84342	308
AL	Jackson Ford Bridge	-87.73420	34.84342	308
AL	Jackson Gap	-86.75138	33.64844	150
AL	Jackson Graded School (historical)	-87.89639	31.51405	181
AL	Jackson Heights	-88.15806	30.67047	260
AL	Jackson Heights	-87.64308	34.74870	295
AL	Jackson Heights Church of Christ	-87.67031	34.81537	303
AL	Jackson High School	-87.89444	31.51322	181
AL	Jackson Hill Pond	-87.78781	34.77148	303
AL	Jackson Hollow	-87.69364	34.77426	299
AL	Jackson Hospital	-87.89500	31.53100	180
AL	Jackson Hospital and Clinic	-86.28557	32.36685	3
AL	Jackson Industrial Park	-87.86528	31.51251	179
AL	Jackson Island	-87.63169	34.79842	299
AL	Jackson Lake	-86.33664	32.44875	13
AL	Jackson Lake	-85.39821	32.65579	87
AL	Jackson Lake	-86.31080	33.36294	112
AL	Jackson Lake	-86.43335	33.41679	119
AL	Jackson Landing	-87.90639	31.49516	183
AL	Jackson Links Golf Course	-87.89026	31.50440	181
AL	Jackson Medical Center	-87.89495	31.53108	180
AL	Jackson Memorial Baptist Church	-85.34995	32.88096	103
AL	Jackson Memorial Gardens Cemetery	-87.86417	31.56905	175
AL	Jackson Mill Creek	-87.84559	34.61870	291
AL	Jackson Mine	-85.92969	33.32039	111
AL	Jackson Mountain	-87.12057	34.59648	261
AL	Jackson Municipal Airport	-87.89355	31.47580	183
AL	Jackson Oak	-87.91194	30.62269	248
AL	Jackson Olin School	-86.89027	33.52066	142
AL	Jackson Pond	-86.30024	31.91654	49
AL	Jackson Pond	-86.01132	31.52867	95
AL	Jackson Post Office	-87.89273	31.52911	180
AL	Jackson Prospect Church	-86.23441	32.25486	12
AL	Jackson Quarters	-87.85168	32.64486	153
AL	Jackson Ridge Church (historical)	-88.10365	34.80370	321
AL	Jackson Ridge School (historical)	-88.10254	34.80398	321
AL	Jackson School (historical)	-85.77190	32.56986	51
AL	Jackson School (historical)	-87.64167	32.04293	135
AL	Jackson School (historical)	-87.79142	34.91759	318
AL	Jackson Shoals	-86.08969	33.54535	133
AL	Jackson Shopping Center	-87.89639	31.52294	180
AL	Jackson Sinks	-86.27276	34.75787	266
AL	Jackson Sod Farm	-87.44611	33.05778	136
AL	Jackson Springs (historical)	-87.87722	31.50850	180
AL	Jackson Spur	-88.31502	31.95682	199
AL	Jackson Square Shopping Center	-87.88944	31.53572	179
AL	Jackson Station	-87.89444	31.49739	182
AL	Jackson Street Baptist Church	-86.29664	32.37097	4
AL	Jackson Street Baptist Church	-86.74110	33.54344	139
AL	Jackson Street Baptist Church	-87.88841	31.52012	180
AL	Jackson Street Presbyterian Church (historical)	-88.04555	30.69269	251
AL	Jackson Subdivision	-86.08637	34.55231	244
AL	Jackson Way Baptist Church	-86.57721	34.74648	267
AL	Jackson West Industrial Park	-87.90833	31.50122	183
AL	Jacksonburg	-87.66364	34.89092	310
AL	Jacksonburg Church of Christ	-87.66447	34.89064	310
AL	Jacksons Bend	-88.10835	32.00154	179
AL	Jacksons Chapel Baptist Church	-86.64304	32.88040	68
AL	Jacksons Chapel Cemetery	-86.64304	32.87985	68
AL	Jacksons Crossing (historical)	-87.69392	34.77648	300
AL	Jacksons Ferry (historical)	-86.31191	32.43014	10
AL	Jacksons Gap Fire Department	-85.81194	32.88684	72
AL	Jacksons Gap Post Office	-85.81163	32.88624	72
AL	Jacksons Gap School (historical)	-85.81024	32.88485	72
AL	Jacksons Lake	-86.34108	32.44541	13
AL	Jacksons Lake	-85.91930	33.21426	100
AL	Jacksons Landing	-88.29392	33.13679	209
AL	Jacksons Mill (historical)	-86.31386	32.43625	10
AL	Jacksons Pond	-85.64828	31.74752	89
AL	Jacksons' Gap	-85.81163	32.88624	72
AL	Jacksonville	-85.76135	33.81371	168
AL	Jacksonville Baptist Temple	-85.75941	33.81593	168
AL	Jacksonville Cemetery	-85.42522	31.93349	92
AL	Jacksonville Cemetery	-85.75913	33.80621	167
AL	Jacksonville Church	-85.42550	31.93349	91
AL	Jacksonville City Park	-85.76663	33.81343	168
AL	Jacksonville Congregational Holiness Church	-85.80858	33.75705	161
AL	Jacksonville Elementary School	-85.76413	33.81593	168
AL	Jacksonville Fire Department	-85.76013	33.81206	168
AL	Jacksonville High School	-85.76246	33.82038	169
AL	Jacksonville Medical Center	-85.76336	33.78517	165
AL	Jacksonville Municipal Airport	-85.77385	33.78843	165
AL	Jacksonville Plaza Shopping Center	-85.76052	33.80927	168
AL	Jacksonville Sewage Treatment Plant	-85.78135	33.82649	169
AL	Jacksonville State University	-85.76663	33.82232	169
AL	Jacob Creek	-86.07942	34.18509	203
AL	Jacob Hollow	-86.99083	33.50511	145
AL	Jacobs Christian Methodist Episcopal Chapel	-86.28331	33.57788	135
AL	Jacobs Creek	-85.85664	34.65092	257
AL	Jacobs Dam	-85.43495	32.49347	79
AL	Jacobs Ladder Bluff	-87.93920	34.37926	273
AL	Jacobs Mill (historical)	-86.10830	33.26789	102
AL	Jacobs Mill (historical)	-85.94026	34.81036	274
AL	Jacobs Mine	-86.19804	34.77898	269
AL	Jacobs Mine Number 2	-86.21721	34.77425	268
AL	Jacobs Mountain	-86.18443	34.81425	273
AL	Jacobs Swamp	-86.49078	32.38207	22
AL	Jacoway Branch	-85.92081	34.92203	286
AL	Jacoway Cemetery	-85.88470	34.93230	288
AL	Jacoway Hollow	-85.88498	34.93425	288
AL	Jacquar Field	-88.17973	30.69269	260
AL	Jagger Branch	-86.29804	34.46064	233
AL	Jagger Branch	-86.30415	34.48148	236
AL	Jagger Hollow	-86.29915	34.48259	236
AL	Jagger Mine	-87.07500	33.37650	137
AL	Jagger Mine	-87.20833	33.29178	137
AL	Jagger Mine Number Two	-87.55696	33.92927	212
AL	Jagger Mines	-87.55557	33.94455	214
AL	Jagger Slope Mine	-87.17916	33.32928	138
AL	Jake Creek	-86.36358	32.72707	42
AL	Jake Creek	-86.25498	33.92760	174
AL	Jake Hollow	-88.00643	34.71787	308
AL	Jamar Cemetery	-86.72444	34.64787	258
AL	Jamar Mobile Home Park	-88.31263	30.50663	283
AL	Jamback	-85.66522	31.91016	75
AL	James	-85.57301	32.64486	72
AL	James	-87.65864	34.67787	288
AL	James (historical)	-85.51939	32.07099	76
AL	James A Light Field	-86.28108	32.39875	5
AL	James A Wheeler Lake	-87.45834	32.59513	116
AL	James A Wheeler Lake Dam	-87.45834	32.59513	116
AL	James Anthony Lake	-88.40350	31.22047	239
AL	James Bluff	-88.04085	32.23292	169
AL	James C Bailey Center	-86.78194	34.07083	196
AL	James C Ratcliffe Dam	-87.59667	32.10515	129
AL	James Cemetery	-87.20278	32.92846	109
AL	James Cemetery	-88.03306	31.75821	180
AL	James Cemetery	-85.66191	34.97425	296
AL	James Cemetery	-88.11476	34.55287	299
AL	James Chapel	-87.92668	32.20459	158
AL	James Chapel Baptist Church	-88.05750	31.54377	193
AL	James Chapel Baptist Church	-86.97973	34.79592	279
AL	James Chapel Cemetery	-87.92585	32.20403	158
AL	James Chapel Church	-87.95226	34.48287	284
AL	James Cravey Dam	-86.34662	31.14351	135
AL	James Creek	-87.56833	32.02126	129
AL	James Creek	-87.69250	31.66988	155
AL	James Creek	-86.85944	33.92899	183
AL	James Creek	-86.95500	33.90705	184
AL	James Creek	-88.30196	31.91154	199
AL	James Creek	-88.40114	31.87182	209
AL	James Creek	-87.63836	34.63065	283
AL	James Creek Wastewater Treatment Plant	-87.92812	31.52545	183
AL	James Crooks Lake	-85.57364	31.37671	127
AL	James Crooks Lake Dam	-85.57494	31.37517	127
AL	James Dam	-86.54332	33.61177	142
AL	James E Glass Stadium	-87.69778	34.27806	252
AL	James F Moore Stadium	-87.65139	34.74222	295
AL	James Fowler Park	-87.27501	33.84788	191
AL	James Hill Spring	-87.52252	34.95619	311
AL	James Ingram Lake Dam	-86.55830	31.47016	102
AL	James Ingram Lake Dam	-86.56163	31.47350	102
AL	James Lake	-86.54332	33.61177	142
AL	James Landing	-87.59777	31.49488	159
AL	James Memorial Baptist Church	-85.96303	34.04760	190
AL	James Moore Cemetery	-86.61250	34.97592	292
AL	James P Nix Center	-87.90018	30.52758	256
AL	James School (historical)	-87.15414	31.27878	147
AL	James T Gregory School	-86.62636	31.81515	69
AL	James Temple Church	-86.01664	34.02621	186
AL	James Wise Pond	-86.06661	31.21351	128
AL	James Wise Pond Dam Number 1	-86.06661	31.21351	128
AL	James Wise Pond Dam Number 2	-86.03328	31.22517	127
AL	James Wise Pond Number Two	-86.03328	31.22517	127
AL	Jamestown	-85.57746	34.39787	235
AL	Jamestown Cemetery	-88.21003	32.94013	194
AL	Jamestown Church	-87.59805	31.47516	160
AL	Jamestown Colony	-85.83605	31.32156	122
AL	Jamestown Tabernacle Church	-85.57635	34.36620	232
AL	Jamesville	-85.62106	32.71291	72
AL	Jamesville	-87.18472	32.92151	107
AL	Jamison Branch	-87.88751	32.30014	154
AL	Jamison Park	-86.59999	34.69231	261
AL	Jamison School (historical)	-87.44058	34.47204	259
AL	Jane Branch	-87.01278	33.95010	190
AL	Janes Mill	-87.15331	31.27823	147
AL	Janeway Mine	-86.88193	33.27511	117
AL	January Branch	-88.08084	31.60711	191
AL	Japanese Creek	-87.23306	33.68344	173
AL	Japonica Path	-87.58612	32.70319	131
AL	Jaquess Spring	-86.66666	34.38482	228
AL	Jarman House Plantation (historical)	-87.51391	34.76537	291
AL	Jarmons Mine	-87.09583	33.66816	165
AL	Jasmine Hill	-86.18830	32.49541	17
AL	Jasper	-87.27751	33.83122	189
AL	Jasper Fire Department Station 1	-87.27568	33.83396	189
AL	Jasper Fire Department Station 2	-87.27335	33.85797	192
AL	Jasper Fire Department Station 3	-87.24312	33.87700	192
AL	Jasper Ford	-87.14444	33.56927	158
AL	Jasper Gas Field	-87.25223	33.88677	193
AL	Jasper Mall Shopping Center	-87.27223	33.85011	191
AL	Jasper Methodist Episcopal Church	-87.26917	33.82622	188
AL	Jasper Middle School	-87.27723	33.83566	190
AL	Jasper Point	-86.38527	34.77259	268
AL	Jasper Post Office	-87.27889	33.83261	189
AL	Jasper Speedway	-87.23973	33.80205	185
AL	Jasper Square Shopping Center	-87.26834	33.85094	191
AL	Java	-85.84383	31.55794	97
AL	Jay Bird Creek	-85.81079	32.95679	79
AL	Jay Branch	-87.75557	33.60678	197
AL	Jay Creek	-87.66223	33.23151	163
AL	Jay Lake	-86.59261	33.89888	174
AL	Jay Villa	-86.94553	31.36545	128
AL	Jaybird Creek	-86.98723	34.22177	218
AL	Jaycee Park	-85.82385	33.69038	153
AL	Jaycee Park	-85.62107	33.92038	183
AL	Jaycee Partlow Dam Number One	-87.64001	33.24012	162
AL	Jaycee Partlow Dam Number Two	-87.64001	33.23512	162
AL	Jays Lake	-87.59001	33.89344	211
AL	Jays Lake Dam	-87.59001	33.89344	211
AL	Jeanes School	-87.90360	30.50214	258
AL	Jeb Branch	-86.66526	33.41733	124
AL	Jeddo	-87.51415	31.33239	164
AL	Jeff	-86.71361	34.82287	277
AL	Jeff Beard Dam	-85.46707	32.76200	87
AL	Jeff Beards Lake	-85.46634	32.76332	87
AL	Jeff Post Office (historical)	-86.71333	34.82287	277
AL	Jeffcoat School (historical)	-85.08687	31.09213	179
AL	Jefferies Park	-88.10305	30.25520	292
AL	Jefferson	-87.89807	32.38681	154
AL	Jefferson Chapel Christian Methodist Episcopal Church	-87.63251	32.99790	147
AL	Jefferson Christian Academy	-86.64526	33.55066	137
AL	Jefferson Church	-87.89640	32.38625	154
AL	Jefferson Church (historical)	-85.37272	32.71013	92
AL	Jefferson County	-86.89649	33.55431	146
AL	Jefferson County Courthouse	-86.80888	33.52122	139
AL	Jefferson County Criminal Court Building	-86.80888	33.52261	139
AL	Jefferson County Farm	-86.76944	33.61260	147
AL	Jefferson County Jail	-86.80916	33.52288	139
AL	Jefferson County Sewage Disposal Plant	-86.78249	33.38011	124
AL	Jefferson Davis High School	-86.26191	32.34319	2
AL	Jefferson Davis State Junior College	-87.08830	31.10323	160
AL	Jefferson Elementary School (historical)	-87.90168	32.38986	155
AL	Jefferson Garden of Memories	-86.83221	33.36094	124
AL	Jefferson Hills	-86.77332	33.57233	143
AL	Jefferson Hughes Church	-86.70944	33.75927	161
AL	Jefferson Memorial Gardens	-86.63971	33.60010	142
AL	Jefferson Memorial Gardens Dam	-86.62999	33.60177	142
AL	Jefferson Mine	-85.94080	33.26206	105
AL	Jefferson Mines	-86.81305	33.77788	166
AL	Jefferson Park	-86.64443	33.54177	136
AL	Jefferson Post Office	-87.89446	32.38570	154
AL	Jefferson Smalls Cemetery	-87.89946	32.38736	155
AL	Jefferson State Community College - Jefferson Campus	-86.70745	33.65196	150
AL	Jefferson Station	-87.84085	32.34431	149
AL	Jefferson Tunnel	-86.94388	33.64705	157
AL	Jefferson Volunteer Fire Department	-87.89423	32.38585	154
AL	Jeffreys Mountain	-87.46614	34.63815	277
AL	Jeffries Cemetery	-86.55056	34.92916	287
AL	Jeffries Cove	-85.78970	34.92619	288
AL	Jehovah Cemetery	-85.66357	33.24789	113
AL	Jehovah Church	-85.66301	33.24789	113
AL	Jehovah's Witness Church	-87.92055	30.50519	259
AL	Jehu Lawler Cemetery	-86.45775	34.75896	267
AL	Jemison	-86.74665	32.95985	81
AL	Jemison (historical)	-87.48334	33.57595	177
AL	Jemison Church	-86.72776	32.94318	79
AL	Jemison Elementary School	-87.55751	33.18567	153
AL	Jemison Fire Department	-86.74583	32.95869	81
AL	Jemison High School	-86.74804	32.96512	82
AL	Jemison Mill Creek	-87.33167	33.21873	139
AL	Jemison Park	-86.08747	33.43455	121
AL	Jemisons Mill (historical)	-86.04191	33.51150	130
AL	Jemisons Mill (historical)	-87.60390	33.23123	159
AL	Jems Landing (historical)	-87.96418	32.46542	161
AL	Jena	-87.84696	33.13068	172
AL	Jena School (historical)	-87.84640	33.12901	172
AL	Jenifer	-85.93636	33.54927	136
AL	Jenkins	-85.66996	33.79955	169
AL	Jenkins Branch	-87.49445	33.72983	191
AL	Jenkins Branch	-86.78917	34.78426	274
AL	Jenkins Branch	-87.94170	34.87314	320
AL	Jenkins Cemetery	-85.31383	32.47625	90
AL	Jenkins Cemetery	-87.60557	33.71511	196
AL	Jenkins Cemetery	-86.43027	34.70009	260
AL	Jenkins Cemetery	-87.57892	34.64731	282
AL	Jenkins Chapel Cemetery	-86.98943	31.78293	94
AL	Jenkins Chapel Methodist Church	-86.98943	31.78349	94
AL	Jenkins Creek	-86.12302	32.42042	15
AL	Jenkins Crossroads	-85.77439	32.02626	59
AL	Jenkins Number One Dam	-86.27165	34.03343	186
AL	Jenkins Number One Lake	-86.27165	34.03343	186
AL	Jenkins Number Three Dam	-86.31998	34.05343	188
AL	Jenkins Number Two Dam	-86.27165	34.03510	186
AL	Jenkins Number Two Lake	-86.27165	34.03510	186
AL	Jenkins Place Cemetery	-87.62028	32.68124	133
AL	Jenkins Prospect	-85.76552	33.28150	112
AL	Jenks Store (historical)	-85.53772	32.02238	77
AL	Jennie Branch	-88.04115	34.42676	283
AL	Jennies Chapel	-86.17748	34.65036	254
AL	Jenning Chapel	-85.50551	34.10093	206
AL	Jennings Branch	-86.27109	33.07929	80
AL	Jennings Cemetery	-86.37581	32.98540	71
AL	Jennings Chapel	-86.81083	34.87620	284
AL	Jennings Chapel Cemetery	-87.62862	33.24678	162
AL	Jennings Chapel United Methodist Church	-87.62806	33.24762	162
AL	Jennings Ferry (historical)	-87.81390	32.80930	154
AL	Jennings Ferry Landing (historical)	-87.81446	32.80957	155
AL	Jennings Ferry Point	-87.81390	32.80930	154
AL	Jennings Ferry Public Use Area	-87.81223	32.80569	154
AL	Jennings Field	-85.19133	32.85624	114
AL	Jennings Graphite Mine	-85.82885	33.30595	113
AL	Jenny Bell Hill	-87.53166	31.35989	164
AL	Jenny Watson Creek	-87.85001	32.81930	158
AL	Jenny Watts Point	-87.83474	32.76124	155
AL	Jennys Lake	-85.29837	31.52782	129
AL	Jergisin Branch	-87.63999	30.53936	241
AL	Jericho	-87.27528	32.77402	106
AL	Jericho	-86.07915	34.97758	291
AL	Jericho Cemetery	-85.57356	32.17015	68
AL	Jericho Cemetery	-87.58445	32.30459	125
AL	Jericho Church	-86.24191	32.18903	19
AL	Jericho Church	-87.58445	32.30459	125
AL	Jerkwater Mine	-87.08889	33.55289	154
AL	Jernegans Pond	-85.64978	31.49896	111
AL	Jernigan	-85.07215	32.12626	115
AL	Jernigan Church	-86.60330	31.40183	111
AL	Jernigan Church	-85.07688	32.12126	114
AL	Jernigan Church	-85.06910	32.13349	115
AL	Jernigan Lake	-87.18664	31.04518	170
AL	Jernigan Mill Creek	-87.15997	31.00879	172
AL	Jernigans Mill (historical)	-85.24382	31.81405	113
AL	Jerry Adams Dam	-86.29995	31.22350	126
AL	Jerry Hill	-85.78191	33.69066	154
AL	Jerry Mcdaniel Lake	-85.48827	31.49184	120
AL	Jerry Mcdaniel Lake Dam	-85.48827	31.49184	120
AL	Jerusalem	-87.85835	33.61178	204
AL	Jerusalem	-87.22696	34.70509	276
AL	Jerusalem African Methodist Episcopal Zion Church	-87.52167	33.16068	148
AL	Jerusalem Baptist Church	-86.29080	32.39958	6
AL	Jerusalem Baptist Church	-86.95694	33.41400	134
AL	Jerusalem Baptist Church	-87.96891	32.82707	169
AL	Jerusalem Baptist Church	-88.33392	32.81958	202
AL	Jerusalem Campground	-85.81522	31.79155	75
AL	Jerusalem Cemetery	-86.98332	32.38597	68
AL	Jerusalem Cemetery	-87.62529	32.73985	135
AL	Jerusalem Cemetery	-87.76723	32.55375	144
AL	Jerusalem Cemetery	-87.52056	33.15345	148
AL	Jerusalem Church	-86.24497	32.15042	23
AL	Jerusalem Church	-86.05051	32.21070	25
AL	Jerusalem Church	-85.90107	32.50152	37
AL	Jerusalem Church	-86.97138	32.38625	67
AL	Jerusalem Church	-86.82248	31.89043	74
AL	Jerusalem Church	-85.53550	31.64794	104
AL	Jerusalem Church	-85.13883	32.57180	108
AL	Jerusalem Church	-87.47972	32.09098	119
AL	Jerusalem Church	-87.62584	32.73957	135
AL	Jerusalem Church	-87.76668	32.55402	144
AL	Jerusalem Church	-87.67501	32.89152	146
AL	Jerusalem Church	-87.90168	32.25903	155
AL	Jerusalem Church	-85.05215	31.06379	183
AL	Jerusalem Church	-87.22974	34.70676	276
AL	Jerusalem Church (historical)	-87.96252	32.81430	168
AL	Jerusalem Heights	-87.51889	33.15651	148
AL	Jerusalem Missionary Baptist Church	-87.73836	34.81703	306
AL	Jerusalem Primitive Baptist Church	-86.87945	34.65537	261
AL	Jerusalem School	-86.97165	32.38569	67
AL	Jerusalem School (historical)	-87.76668	32.55375	144
AL	Jerusalem School (historical)	-87.52001	33.15401	148
AL	Jerusalem School (historical)	-87.73809	34.81648	305
AL	Jess Branch	-86.48526	33.53566	132
AL	Jess Branch	-87.18444	33.44594	149
AL	Jess Creek	-87.49306	33.79817	197
AL	Jess Dunn Hill	-87.41334	33.56428	172
AL	Jess Hollow	-86.48609	33.53594	132
AL	Jess Lanier High School	-86.98527	33.36872	131
AL	Jesse Creek	-86.94832	33.20650	114
AL	Jesse Dean Smith School	-86.03414	33.99593	183
AL	Jesse Thomas Public Housing	-88.05265	30.70162	250
AL	Jesseton	-87.16668	34.40482	242
AL	Jessie Forrester Dam	-85.34327	31.20018	155
AL	Jessie Forrester Lake	-85.34422	31.19847	155
